{
  "type": "FeatureCollection",
  "features": [
    {
      "type": "Feature",
      "properties": {
        "concentration": "VERY_HIGH",
        "time_hours": 0,
        "color": "#8B0000",
        "opacity": 0.8
      },
      "geometry": {
        "type": "Polygon",
        "coordinates": [
          [
            [
              72.8186522838677,
              18.9076
            ],
            [
              72.8186476983606,
              18.907688303730026
            ],
            [
              72.81863398600022,
              18.90777575704686
            ],
            [
              72.81861127884407,
              18.907861517727255
            ],
            [
              72.81857979557452,
              18.907944759848977
            ],
            [
              72.81853983939263,
              18.908024681744887
            ],
            [
              72.81849179509828,
              18.90810051372344
            ],
            [
              72.81843612538431,
              18.908171525481226
            ],
            [
              72.81837336638047,
              18.908237033136203
            ],
            [
              72.81830412249029,
              18.90829640581384
            ],
            [
              72.81822906057029,
              18.908349071722792
            ],
            [
              72.81814890350778,
              18.908394523661574
            ],
            [
              72.81806442325909,
              18.908432323903163
            ],
            [
              72.8179764334152,
              18.908462108410568
            ],
            [
              72.8178857813664,
              18.908483590342705
            ],
            [
              72.81779334014149,
              18.908496562816822
            ],
            [
              72.8177,
              18.9085009009009
            ],
            [
              72.81760665985851,
              18.908496562816822
            ],
            [
              72.8175142186336,
              18.908483590342705
            ],
            [
              72.81742356658481,
              18.908462108410568
            ],
            [
              72.81733557674092,
              18.908432323903163
            ],
            [
              72.81725109649223,
              18.908394523661574
            ],
            [
              72.81717093942972,
              18.908349071722792
            ],
            [
              72.81709587750971,
              18.90829640581384
            ],
            [
              72.81702663361953,
              18.908237033136203
            ],
            [
              72.8169638746157,
              18.908171525481226
            ],
            [
              72.81690820490172,
              18.90810051372344
            ],
            [
              72.81686016060738,
              18.908024681744887
            ],
            [
              72.81682020442548,
              18.907944759848977
            ],
            [
              72.81678872115593,
              18.907861517727255
            ],
            [
              72.81676601399978,
              18.90777575704686
            ],
            [
              72.8167523016394,
              18.907688303730026
            ],
            [
              72.8167477161323,
              18.9076
            ],
            [
              72.8167523016394,
              18.90751169626997
            ],
            [
              72.81676601399978,
              18.907424242953137
            ],
            [
              72.81678872115593,
              18.907338482272742
            ],
            [
              72.81682020442548,
              18.90725524015102
            ],
            [
              72.81686016060738,
              18.90717531825511
            ],
            [
              72.81690820490172,
              18.907099486276557
            ],
            [
              72.8169638746157,
              18.90702847451877
            ],
            [
              72.81702663361953,
              18.906962966863794
            ],
            [
              72.81709587750971,
              18.906903594186158
            ],
            [
              72.81717093942972,
              18.906850928277205
            ],
            [
              72.81725109649223,
              18.906805476338423
            ],
            [
              72.81733557674092,
              18.906767676096834
            ],
            [
              72.81742356658481,
              18.90673789158943
            ],
            [
              72.8175142186336,
              18.906716409657292
            ],
            [
              72.81760665985851,
              18.906703437183175
            ],
            [
              72.8177,
              18.906699099099097
            ],
            [
              72.81779334014149,
              18.906703437183175
            ],
            [
              72.8178857813664,
              18.906716409657292
            ],
            [
              72.8179764334152,
              18.90673789158943
            ],
            [
              72.81806442325909,
              18.906767676096834
            ],
            [
              72.81814890350778,
              18.906805476338423
            ],
            [
              72.81822906057029,
              18.906850928277205
            ],
            [
              72.81830412249029,
              18.906903594186158
            ],
            [
              72.81837336638047,
              18.906962966863794
            ],
            [
              72.81843612538431,
              18.90702847451877
            ],
            [
              72.81849179509828,
              18.907099486276557
            ],
            [
              72.81853983939263,
              18.90717531825511
            ],
            [
              72.81857979557452,
              18.90725524015102
            ],
            [
              72.81861127884407,
              18.907338482272742
            ],
            [
              72.81863398600022,
              18.907424242953137
            ],
            [
              72.8186476983606,
              18.90751169626997
            ],
            [
              72.8186522838677,
              18.9076
            ]
          ]
        ]
      }
    },
    {
      "type": "Feature",
      "properties": {
        "concentration": "HIGH",
        "time_hours": 0,
        "color": "#FF0000",
        "opacity": 0.7
      },
      "geometry": {
        "type": "Polygon",
        "coordinates": [
          [
            [
              72.81960456773542,
              18.9076
            ],
            [
              72.8195953967212,
              18.90777660746005
            ],
            [
              72.81956797200043,
              18.90795151409372
            ],
            [
              72.81952255768816,
              18.908123035454512
            ],
            [
              72.81945959114904,
              18.908289519697952
            ],
            [
              72.81937967878525,
              18.908449363489776
            ],
            [
              72.81928359019658,
              18.90860102744688
            ],
            [
              72.81917225076862,
              18.908743050962457
            ],
            [
              72.81904673276094,
              18.908874066272407
            ],
            [
              72.81890824498059,
              18.90899281162768
            ],
            [
              72.81875812114058,
              18.90909814344559
            ],
            [
              72.81859780701554,
              18.90918904732315
            ],
            [
              72.81842884651816,
              18.909264647806324
            ],
            [
              72.81825286683039,
              18.909324216821137
            ],
            [
              72.81807156273281,
              18.90936718068541
            ],
            [
              72.817886680283,
              18.909393125633642
            ],
            [
              72.8177,
              18.9094018018018
            ],
            [
              72.81751331971701,
              18.909393125633642
            ],
            [
              72.8173284372672,
              18.90936718068541
            ],
            [
              72.81714713316961,
              18.909324216821137
            ],
            [
              72.81697115348184,
              18.909264647806324
            ],
            [
              72.81680219298447,
              18.90918904732315
            ],
            [
              72.81664187885943,
              18.90909814344559
            ],
            [
              72.81649175501941,
              18.90899281162768
            ],
            [
              72.81635326723907,
              18.908874066272407
            ],
            [
              72.81622774923139,
              18.908743050962457
            ],
            [
              72.81611640980343,
              18.90860102744688
            ],
            [
              72.81602032121475,
              18.908449363489776
            ],
            [
              72.81594040885096,
              18.908289519697952
            ],
            [
              72.81587744231184,
              18.908123035454512
            ],
            [
              72.81583202799958,
              18.90795151409372
            ],
            [
              72.8158046032788,
              18.90777660746005
            ],
            [
              72.81579543226458,
              18.9076
            ],
            [
              72.8158046032788,
              18.907423392539947
            ],
            [
              72.81583202799958,
              18.907248485906276
            ],
            [
              72.81587744231184,
              18.907076964545485
            ],
            [
              72.81594040885096,
              18.906910480302045
            ],
            [
              72.81602032121475,
              18.90675063651022
            ],
            [
              72.81611640980343,
              18.906598972553116
            ],
            [
              72.81622774923139,
              18.90645694903754
            ],
            [
              72.81635326723907,
              18.90632593372759
            ],
            [
              72.81649175501941,
              18.906207188372317
            ],
            [
              72.81664187885943,
              18.906101856554407
            ],
            [
              72.81680219298447,
              18.906010952676848
            ],
            [
              72.81697115348184,
              18.905935352193673
            ],
            [
              72.81714713316961,
              18.90587578317886
            ],
            [
              72.8173284372672,
              18.905832819314586
            ],
            [
              72.81751331971701,
              18.905806874366355
            ],
            [
              72.8177,
              18.905798198198198
            ],
            [
              72.817886680283,
              18.905806874366355
            ],
            [
              72.81807156273281,
              18.905832819314586
            ],
            [
              72.81825286683039,
              18.90587578317886
            ],
            [
              72.81842884651816,
              18.905935352193673
            ],
            [
              72.81859780701554,
              18.906010952676848
            ],
            [
              72.81875812114058,
              18.906101856554407
            ],
            [
              72.81890824498059,
              18.906207188372317
            ],
            [
              72.81904673276094,
              18.90632593372759
            ],
            [
              72.81917225076862,
              18.90645694903754
            ],
            [
              72.81928359019658,
              18.906598972553116
            ],
            [
              72.81937967878525,
              18.90675063651022
            ],
            [
              72.81945959114904,
              18.906910480302045
            ],
            [
              72.81952255768816,
              18.907076964545485
            ],
            [
              72.81956797200043,
              18.907248485906276
            ],
            [
              72.8195953967212,
              18.907423392539947
            ],
            [
              72.81960456773542,
              18.9076
            ]
          ]
        ]
      }
    },
    {
      "type": "Feature",
      "properties": {
        "concentration": "MEDIUM",
        "time_hours": 0,
        "color": "#FFA500",
        "opacity": 0.6
      },
      "geometry": {
        "type": "Polygon",
        "coordinates": [
          [
            [
              72.82055685160313,
              18.9076
            ],
            [
              72.8205430950818,
              18.907864911190078
            ],
            [
              72.82050195800065,
              18.908127271140582
            ],
            [
              72.82043383653223,
              18.90838455318177
            ],
            [
              72.82033938672355,
              18.90863427954693
            ],
            [
              72.8202195181779,
              18.908874045234665
            ],
            [
              72.82007538529486,
              18.909101541170322
            ],
            [
              72.81990837615292,
              18.909314576443684
            ],
            [
              72.81972009914142,
              18.90951109940861
            ],
            [
              72.81951236747088,
              18.90968921744152
            ],
            [
              72.81928718171085,
              18.909847215168384
            ],
            [
              72.81904671052331,
              18.909983570984725
            ],
            [
              72.81879326977725,
              18.91009697170949
            ],
            [
              72.81852930024559,
              18.910186325231706
            ],
            [
              72.81825734409921,
              18.910250771028114
            ],
            [
              72.81798002042449,
              18.910289688450465
            ],
            [
              72.8177,
              18.9103027027027
            ],
            [
              72.81741997957552,
              18.910289688450465
            ],
            [
              72.8171426559008,
              18.910250771028114
            ],
            [
              72.81687069975442,
              18.910186325231706
            ],
            [
              72.81660673022276,
              18.91009697170949
            ],
            [
              72.8163532894767,
              18.909983570984725
            ],
            [
              72.81611281828916,
              18.909847215168384
            ],
            [
              72.81588763252913,
              18.90968921744152
            ],
            [
              72.81567990085858,
              18.90951109940861
            ],
            [
              72.81549162384708,
              18.909314576443684
            ],
            [
              72.81532461470515,
              18.909101541170322
            ],
            [
              72.81518048182211,
              18.908874045234665
            ],
            [
              72.81506061327646,
              18.90863427954693
            ],
            [
              72.81496616346777,
              18.90838455318177
            ],
            [
              72.81489804199936,
              18.908127271140582
            ],
            [
              72.8148569049182,
              18.907864911190078
            ],
            [
              72.81484314839687,
              18.9076
            ],
            [
              72.8148569049182,
              18.90733508880992
            ],
            [
              72.81489804199936,
              18.907072728859415
            ],
            [
              72.81496616346777,
              18.90681544681823
            ],
            [
              72.81506061327646,
              18.906565720453067
            ],
            [
              72.81518048182211,
              18.906325954765332
            ],
            [
              72.81532461470515,
              18.906098458829675
            ],
            [
              72.81549162384708,
              18.905885423556313
            ],
            [
              72.81567990085858,
              18.905688900591386
            ],
            [
              72.81588763252913,
              18.905510782558476
            ],
            [
              72.81611281828916,
              18.905352784831614
            ],
            [
              72.8163532894767,
              18.905216429015272
            ],
            [
              72.81660673022276,
              18.905103028290508
            ],
            [
              72.81687069975442,
              18.90501367476829
            ],
            [
              72.8171426559008,
              18.904949228971883
            ],
            [
              72.81741997957552,
              18.904910311549532
            ],
            [
              72.8177,
              18.904897297297296
            ],
            [
              72.81798002042449,
              18.904910311549532
            ],
            [
              72.81825734409921,
              18.904949228971883
            ],
            [
              72.81852930024559,
              18.90501367476829
            ],
            [
              72.81879326977725,
              18.905103028290508
            ],
            [
              72.81904671052331,
              18.905216429015272
            ],
            [
              72.81928718171085,
              18.905352784831614
            ],
            [
              72.81951236747088,
              18.905510782558476
            ],
            [
              72.81972009914142,
              18.905688900591386
            ],
            [
              72.81990837615292,
              18.905885423556313
            ],
            [
              72.82007538529486,
              18.906098458829675
            ],
            [
              72.8202195181779,
              18.906325954765332
            ],
            [
              72.82033938672355,
              18.906565720453067
            ],
            [
              72.82043383653223,
              18.90681544681823
            ],
            [
              72.82050195800065,
              18.907072728859415
            ],
            [
              72.8205430950818,
              18.90733508880992
            ],
            [
              72.82055685160313,
              18.9076
            ]
          ]
        ]
      }
    },
    {
      "type": "Feature",
      "properties": {
        "concentration": "LOW",
        "time_hours": 0,
        "color": "#FFFF00",
        "opacity": 0.5
      },
      "geometry": {
        "type": "Polygon",
        "coordinates": [
          [
            [
              72.82246141933855,
              18.9076
            ],
            [
              72.822438491803,
              18.908041518650133
            ],
            [
              72.82236993000107,
              18.908478785234305
            ],
            [
              72.82225639422039,
              18.90890758863628
            ],
            [
              72.82209897787259,
              18.909323799244888
            ],
            [
              72.82189919696314,
              18.90972340872444
            ],
            [
              72.82165897549143,
              18.910102568617205
            ],
            [
              72.82138062692154,
              18.910457627406142
            ],
            [
              72.82106683190236,
              18.91078516568102
            ],
            [
              72.82072061245147,
              18.9110820290692
            ],
            [
              72.82034530285142,
              18.911345358613975
            ],
            [
              72.81994451753886,
              18.911572618307876
            ],
            [
              72.8195221162954,
              18.911761619515815
            ],
            [
              72.81908216707596,
              18.911910542052848
            ],
            [
              72.81862890683202,
              18.912017951713526
            ],
            [
              72.81816670070748,
              18.91208281408411
            ],
            [
              72.8177,
              18.9121045045045
            ],
            [
              72.81723329929252,
              18.91208281408411
            ],
            [
              72.81677109316799,
              18.912017951713526
            ],
            [
              72.81631783292404,
              18.911910542052848
            ],
            [
              72.8158778837046,
              18.911761619515815
            ],
            [
              72.81545548246115,
              18.911572618307876
            ],
            [
              72.81505469714858,
              18.911345358613975
            ],
            [
              72.81467938754854,
              18.9110820290692
            ],
            [
              72.81433316809765,
              18.91078516568102
            ],
            [
              72.81401937307847,
              18.910457627406142
            ],
            [
              72.81374102450857,
              18.910102568617205
            ],
            [
              72.81350080303686,
              18.90972340872444
            ],
            [
              72.81330102212742,
              18.909323799244888
            ],
            [
              72.81314360577962,
              18.90890758863628
            ],
            [
              72.81303006999893,
              18.908478785234305
            ],
            [
              72.812961508197,
              18.908041518650133
            ],
            [
              72.81293858066145,
              18.9076
            ],
            [
              72.812961508197,
              18.907158481349864
            ],
            [
              72.81303006999893,
              18.906721214765692
            ],
            [
              72.81314360577962,
              18.90629241136372
            ],
            [
              72.81330102212742,
              18.90587620075511
            ],
            [
              72.81350080303686,
              18.90547659127556
            ],
            [
              72.81374102450857,
              18.905097431382792
            ],
            [
              72.81401937307847,
              18.904742372593855
            ],
            [
              72.81433316809765,
              18.904414834318978
            ],
            [
              72.81467938754854,
              18.9041179709308
            ],
            [
              72.81505469714858,
              18.903854641386022
            ],
            [
              72.81545548246115,
              18.90362738169212
            ],
            [
              72.8158778837046,
              18.903438380484182
            ],
            [
              72.81631783292404,
              18.90328945794715
            ],
            [
              72.81677109316799,
              18.90318204828647
            ],
            [
              72.81723329929252,
              18.90311718591589
            ],
            [
              72.8177,
              18.903095495495496
            ],
            [
              72.81816670070748,
              18.90311718591589
            ],
            [
              72.81862890683202,
              18.90318204828647
            ],
            [
              72.81908216707596,
              18.90328945794715
            ],
            [
              72.8195221162954,
              18.903438380484182
            ],
            [
              72.81994451753886,
              18.90362738169212
            ],
            [
              72.82034530285142,
              18.903854641386022
            ],
            [
              72.82072061245147,
              18.9041179709308
            ],
            [
              72.82106683190236,
              18.904414834318978
            ],
            [
              72.82138062692154,
              18.904742372593855
            ],
            [
              72.82165897549143,
              18.905097431382792
            ],
            [
              72.82189919696314,
              18.90547659127556
            ],
            [
              72.82209897787259,
              18.90587620075511
            ],
            [
              72.82225639422039,
              18.90629241136372
            ],
            [
              72.82236993000107,
              18.906721214765692
            ],
            [
              72.822438491803,
              18.907158481349864
            ],
            [
              72.82246141933855,
              18.9076
            ]
          ]
        ]
      }
    },
    {
      "type": "Feature",
      "properties": {
        "type": "release_point",
        "time_hours": 0
      },
      "geometry": {
        "type": "Point",
        "coordinates": [
          72.8177,
          18.9076
        ]
      }
    },
    {
      "type": "Feature",
      "properties": {
        "type": "vessel",
        "name": "MV Oceanic Star",
        "time_hours": 0
      },
      "geometry": {
        "type": "Point",
        "coordinates": [
          72.8177,
          18.9076
        ]
      }
    }
  ]
}