{
  "type": "FeatureCollection",
  "features": [
    {
      "type": "Feature",
      "properties": {
        "concentration": "VERY_HIGH",
        "time_hours": 12,
        "color": "#8B0000",
        "opacity": 0.8
      },
      "geometry": {
        "type": "Polygon",
        "coordinates": [
          [
            [
              72.87578931593025,
              18.9076
            ],
            [
              72.87550959999662,
              18.912986527531622
            ],
            [
              72.87467314601308,
              18.91832117985854
            ],
            [
              72.87328800948875,
              18.92355258136263
            ],
            [
              72.87136753004555,
              18.92863035078763
            ],
            [
              72.86893020295034,
              18.933505586438184
            ],
            [
              72.86599950099544,
              18.938131337129903
            ],
            [
              72.86260364844277,
              18.94246305435494
            ],
            [
              72.85877534920877,
              18.94645902130845
            ],
            [
              72.85455147190781,
              18.950080754644258
            ],
            [
              72.84997269478733,
              18.9532933750905
            ],
            [
              72.84508311397397,
              18.95606594335608
            ],
            [
              72.83992981880392,
              18.958371758092962
            ],
            [
              72.83456243832674,
              18.960188613044743
            ],
            [
              72.82903266335053,
              18.96149901090504
            ],
            [
              72.82339374863119,
              18.96229033182613
            ],
            [
              72.8177,
              18.962554954954953
            ],
            [
              72.81200625136881,
              18.96229033182613
            ],
            [
              72.80636733664947,
              18.96149901090504
            ],
            [
              72.80083756167326,
              18.960188613044743
            ],
            [
              72.79547018119608,
              18.958371758092962
            ],
            [
              72.79031688602603,
              18.95606594335608
            ],
            [
              72.78542730521268,
              18.9532933750905
            ],
            [
              72.78084852809219,
              18.950080754644258
            ],
            [
              72.77662465079123,
              18.94645902130845
            ],
            [
              72.77279635155723,
              18.94246305435494
            ],
            [
              72.76940049900456,
              18.938131337129903
            ],
            [
              72.76646979704967,
              18.933505586438184
            ],
            [
              72.76403246995446,
              18.92863035078763
            ],
            [
              72.76211199051126,
              18.92355258136263
            ],
            [
              72.76072685398692,
              18.91832117985854
            ],
            [
              72.75989040000339,
              18.912986527531622
            ],
            [
              72.75961068406976,
              18.9076
            ],
            [
              72.75989040000339,
              18.902213472468375
            ],
            [
              72.76072685398692,
              18.896878820141456
            ],
            [
              72.76211199051126,
              18.891647418637366
            ],
            [
              72.76403246995446,
              18.88656964921237
            ],
            [
              72.76646979704967,
              18.881694413561814
            ],
            [
              72.76940049900456,
              18.877068662870094
            ],
            [
              72.77279635155723,
              18.87273694564506
            ],
            [
              72.77662465079123,
              18.868740978691548
            ],
            [
              72.78084852809219,
              18.86511924535574
            ],
            [
              72.78542730521268,
              18.861906624909498
            ],
            [
              72.79031688602603,
              18.859134056643917
            ],
            [
              72.79547018119608,
              18.856828241907035
            ],
            [
              72.80083756167326,
              18.855011386955255
            ],
            [
              72.80636733664947,
              18.853700989094957
            ],
            [
              72.81200625136881,
              18.85290966817387
            ],
            [
              72.8177,
              18.852645045045044
            ],
            [
              72.82339374863119,
              18.85290966817387
            ],
            [
              72.82903266335053,
              18.853700989094957
            ],
            [
              72.83456243832674,
              18.855011386955255
            ],
            [
              72.83992981880392,
              18.856828241907035
            ],
            [
              72.84508311397397,
              18.859134056643917
            ],
            [
              72.84997269478733,
              18.861906624909498
            ],
            [
              72.85455147190781,
              18.86511924535574
            ],
            [
              72.85877534920877,
              18.868740978691548
            ],
            [
              72.86260364844277,
              18.87273694564506
            ],
            [
              72.86599950099544,
              18.877068662870094
            ],
            [
              72.86893020295034,
              18.881694413561814
            ],
            [
              72.87136753004555,
              18.88656964921237
            ],
            [
              72.87328800948875,
              18.891647418637366
            ],
            [
              72.87467314601308,
              18.896878820141456
            ],
            [
              72.87550959999662,
              18.902213472468375
            ],
            [
              72.87578931593025,
              18.9076
            ]
          ]
        ]
      }
    },
    {
      "type": "Feature",
      "properties": {
        "concentration": "HIGH",
        "time_hours": 12,
        "color": "#FF0000",
        "opacity": 0.7
      },
      "geometry": {
        "type": "Polygon",
        "coordinates": [
          [
            [
              72.93387863186051,
              18.9076
            ],
            [
              72.93331919999325,
              18.91837305506325
            ],
            [
              72.93164629202617,
              18.929042359717087
            ],
            [
              72.9288760189775,
              18.939505162725265
            ],
            [
              72.92503506009109,
              18.94966070157526
            ],
            [
              72.92016040590067,
              18.95941117287637
            ],
            [
              72.9142990019909,
              18.96866267425981
            ],
            [
              72.90750729688556,
              18.977326108709878
            ],
            [
              72.89985069841754,
              18.9853180426169
            ],
            [
              72.89140294381562,
              18.992561509288517
            ],
            [
              72.88224538957463,
              18.998986750181
            ],
            [
              72.87246622794795,
              19.00453188671216
            ],
            [
              72.86215963760786,
              19.009143516185922
            ],
            [
              72.8514248766535,
              19.012777226089483
            ],
            [
              72.84036532670106,
              19.015398021810082
            ],
            [
              72.82908749726236,
              19.01698066365226
            ],
            [
              72.8177,
              19.017509909909908
            ],
            [
              72.80631250273764,
              19.01698066365226
            ],
            [
              72.79503467329894,
              19.015398021810082
            ],
            [
              72.78397512334651,
              19.012777226089483
            ],
            [
              72.77324036239214,
              19.009143516185922
            ],
            [
              72.76293377205205,
              19.00453188671216
            ],
            [
              72.75315461042537,
              18.998986750181
            ],
            [
              72.74399705618438,
              18.992561509288517
            ],
            [
              72.73554930158247,
              18.9853180426169
            ],
            [
              72.72789270311445,
              18.977326108709878
            ],
            [
              72.7211009980091,
              18.96866267425981
            ],
            [
              72.71523959409933,
              18.95941117287637
            ],
            [
              72.71036493990891,
              18.94966070157526
            ],
            [
              72.7065239810225,
              18.939505162725265
            ],
            [
              72.70375370797383,
              18.929042359717087
            ],
            [
              72.70208080000675,
              18.91837305506325
            ],
            [
              72.7015213681395,
              18.9076
            ],
            [
              72.70208080000675,
              18.89682694493675
            ],
            [
              72.70375370797383,
              18.88615764028291
            ],
            [
              72.7065239810225,
              18.875694837274732
            ],
            [
              72.71036493990891,
              18.865539298424736
            ],
            [
              72.71523959409933,
              18.85578882712363
            ],
            [
              72.7211009980091,
              18.846537325740186
            ],
            [
              72.72789270311445,
              18.83787389129012
            ],
            [
              72.73554930158247,
              18.829881957383098
            ],
            [
              72.74399705618438,
              18.82263849071148
            ],
            [
              72.75315461042537,
              18.816213249818997
            ],
            [
              72.76293377205205,
              18.810668113287836
            ],
            [
              72.77324036239214,
              18.806056483814075
            ],
            [
              72.78397512334651,
              18.802422773910514
            ],
            [
              72.79503467329894,
              18.799801978189915
            ],
            [
              72.80631250273764,
              18.79821933634774
            ],
            [
              72.8177,
              18.79769009009009
            ],
            [
              72.82908749726236,
              18.79821933634774
            ],
            [
              72.84036532670106,
              18.799801978189915
            ],
            [
              72.8514248766535,
              18.802422773910514
            ],
            [
              72.86215963760786,
              18.806056483814075
            ],
            [
              72.87246622794795,
              18.810668113287836
            ],
            [
              72.88224538957463,
              18.816213249818997
            ],
            [
              72.89140294381562,
              18.82263849071148
            ],
            [
              72.89985069841754,
              18.829881957383098
            ],
            [
              72.90750729688556,
              18.83787389129012
            ],
            [
              72.9142990019909,
              18.846537325740186
            ],
            [
              72.92016040590067,
              18.85578882712363
            ],
            [
              72.92503506009109,
              18.865539298424736
            ],
            [
              72.9288760189775,
              18.875694837274732
            ],
            [
              72.93164629202617,
              18.88615764028291
            ],
            [
              72.93331919999325,
              18.89682694493675
            ],
            [
              72.93387863186051,
              18.9076
            ]
          ]
        ]
      }
    },
    {
      "type": "Feature",
      "properties": {
        "concentration": "MEDIUM",
        "time_hours": 12,
        "color": "#FFA500",
        "opacity": 0.6
      },
      "geometry": {
        "type": "Polygon",
        "coordinates": [
          [
            [
              72.99196794779076,
              18.9076
            ],
            [
              72.99112879998987,
              18.923759582594872
            ],
            [
              72.98861943803925,
              18.93976353957563
            ],
            [
              72.98446402846625,
              18.955457744087898
            ],
            [
              72.97870259013662,
              18.97069105236289
            ],
            [
              72.97139060885101,
              18.985316759314554
            ],
            [
              72.96259850298634,
              18.999194011389715
            ],
            [
              72.95241094532832,
              19.012189163064814
            ],
            [
              72.9409260476263,
              19.024177063925347
            ],
            [
              72.92825441572343,
              19.035042263932773
            ],
            [
              72.91451808436196,
              19.044680125271498
            ],
            [
              72.89984934192192,
              19.05299783006824
            ],
            [
              72.88438945641178,
              19.059915274278886
            ],
            [
              72.86828731498024,
              19.065365839134227
            ],
            [
              72.85169799005159,
              19.069297032715127
            ],
            [
              72.83478124589355,
              19.07167099547839
            ],
            [
              72.8177,
              19.072464864864862
            ],
            [
              72.80061875410645,
              19.07167099547839
            ],
            [
              72.78370200994841,
              19.069297032715127
            ],
            [
              72.76711268501977,
              19.065365839134227
            ],
            [
              72.75101054358822,
              19.059915274278886
            ],
            [
              72.73555065807808,
              19.05299783006824
            ],
            [
              72.72088191563805,
              19.044680125271498
            ],
            [
              72.70714558427657,
              19.035042263932773
            ],
            [
              72.6944739523737,
              19.024177063925347
            ],
            [
              72.68298905467168,
              19.012189163064814
            ],
            [
              72.67280149701367,
              18.999194011389715
            ],
            [
              72.664009391149,
              18.985316759314554
            ],
            [
              72.65669740986338,
              18.97069105236289
            ],
            [
              72.65093597153376,
              18.955457744087898
            ],
            [
              72.64678056196075,
              18.93976353957563
            ],
            [
              72.64427120001014,
              18.923759582594872
            ],
            [
              72.64343205220925,
              18.9076
            ],
            [
              72.64427120001014,
              18.891440417405125
            ],
            [
              72.64678056196075,
              18.875436460424368
            ],
            [
              72.65093597153376,
              18.8597422559121
            ],
            [
              72.65669740986338,
              18.844508947637106
            ],
            [
              72.664009391149,
              18.829883240685444
            ],
            [
              72.67280149701367,
              18.816005988610282
            ],
            [
              72.68298905467168,
              18.803010836935183
            ],
            [
              72.6944739523737,
              18.79102293607465
            ],
            [
              72.70714558427657,
              18.780157736067224
            ],
            [
              72.72088191563805,
              18.7705198747285
            ],
            [
              72.73555065807808,
              18.762202169931758
            ],
            [
              72.75101054358822,
              18.75528472572111
            ],
            [
              72.76711268501977,
              18.74983416086577
            ],
            [
              72.78370200994841,
              18.74590296728487
            ],
            [
              72.80061875410645,
              18.74352900452161
            ],
            [
              72.8177,
              18.742735135135135
            ],
            [
              72.83478124589355,
              18.74352900452161
            ],
            [
              72.85169799005159,
              18.74590296728487
            ],
            [
              72.86828731498024,
              18.74983416086577
            ],
            [
              72.88438945641178,
              18.75528472572111
            ],
            [
              72.89984934192192,
              18.762202169931758
            ],
            [
              72.91451808436196,
              18.7705198747285
            ],
            [
              72.92825441572343,
              18.780157736067224
            ],
            [
              72.9409260476263,
              18.79102293607465
            ],
            [
              72.95241094532832,
              18.803010836935183
            ],
            [
              72.96259850298634,
              18.816005988610282
            ],
            [
              72.97139060885101,
              18.829883240685444
            ],
            [
              72.97870259013662,
              18.844508947637106
            ],
            [
              72.98446402846625,
              18.8597422559121
            ],
            [
              72.98861943803925,
              18.875436460424368
            ],
            [
              72.99112879998987,
              18.891440417405125
            ],
            [
              72.99196794779076,
              18.9076
            ]
          ]
        ]
      }
    },
    {
      "type": "Feature",
      "properties": {
        "concentration": "LOW",
        "time_hours": 12,
        "color": "#FFFF00",
        "opacity": 0.5
      },
      "geometry": {
        "type": "Polygon",
        "coordinates": [
          [
            [
              73.10814657965126,
              18.9076
            ],
            [
              73.10674799998311,
              18.934532637658123
            ],
            [
              73.10256573006542,
              18.961205899292718
            ],
            [
              73.09564004744375,
              18.98736290681316
            ],
            [
              73.08603765022771,
              19.012751753938154
            ],
            [
              73.0738510147517,
              19.037127932190927
            ],
            [
              73.05919750497723,
              19.060256685649527
            ],
            [
              73.04221824221388,
              19.081915271774694
            ],
            [
              73.02307674604384,
              19.101895106542248
            ],
            [
              73.00195735953906,
              19.120003773221292
            ],
            [
              72.97906347393659,
              19.1360668754525
            ],
            [
              72.95461556986987,
              19.149929716780402
            ],
            [
              72.92884909401964,
              19.161458790464813
            ],
            [
              72.90201219163373,
              19.170543065223715
            ],
            [
              72.87436331675265,
              19.17709505452521
            ],
            [
              72.84616874315591,
              19.18105165913065
            ],
            [
              72.8177,
              19.18237477477477
            ],
            [
              72.78923125684409,
              19.18105165913065
            ],
            [
              72.76103668324735,
              19.17709505452521
            ],
            [
              72.73338780836627,
              19.170543065223715
            ],
            [
              72.70655090598036,
              19.161458790464813
            ],
            [
              72.68078443013013,
              19.149929716780402
            ],
            [
              72.65633652606341,
              19.1360668754525
            ],
            [
              72.63344264046094,
              19.120003773221292
            ],
            [
              72.61232325395616,
              19.101895106542248
            ],
            [
              72.59318175778613,
              19.081915271774694
            ],
            [
              72.57620249502277,
              19.060256685649527
            ],
            [
              72.56154898524831,
              19.037127932190927
            ],
            [
              72.5493623497723,
              19.012751753938154
            ],
            [
              72.53975995255625,
              18.98736290681316
            ],
            [
              72.53283426993458,
              18.961205899292718
            ],
            [
              72.52865200001689,
              18.934532637658123
            ],
            [
              72.52725342034874,
              18.9076
            ],
            [
              72.52865200001689,
              18.880667362341875
            ],
            [
              72.53283426993458,
              18.85399410070728
            ],
            [
              72.53975995255625,
              18.827837093186837
            ],
            [
              72.5493623497723,
              18.802448246061843
            ],
            [
              72.56154898524831,
              18.77807206780907
            ],
            [
              72.57620249502277,
              18.75494331435047
            ],
            [
              72.59318175778613,
              18.733284728225303
            ],
            [
              72.61232325395616,
              18.71330489345775
            ],
            [
              72.63344264046094,
              18.695196226778705
            ],
            [
              72.65633652606341,
              18.679133124547498
            ],
            [
              72.68078443013013,
              18.665270283219595
            ],
            [
              72.70655090598036,
              18.653741209535184
            ],
            [
              72.73338780836627,
              18.644656934776282
            ],
            [
              72.76103668324735,
              18.638104945474787
            ],
            [
              72.78923125684409,
              18.63414834086935
            ],
            [
              72.8177,
              18.632825225225226
            ],
            [
              72.84616874315591,
              18.63414834086935
            ],
            [
              72.87436331675265,
              18.638104945474787
            ],
            [
              72.90201219163373,
              18.644656934776282
            ],
            [
              72.92884909401964,
              18.653741209535184
            ],
            [
              72.95461556986987,
              18.665270283219595
            ],
            [
              72.97906347393659,
              18.679133124547498
            ],
            [
              73.00195735953906,
              18.695196226778705
            ],
            [
              73.02307674604384,
              18.71330489345775
            ],
            [
              73.04221824221388,
              18.733284728225303
            ],
            [
              73.05919750497723,
              18.75494331435047
            ],
            [
              73.0738510147517,
              18.77807206780907
            ],
            [
              73.08603765022771,
              18.802448246061843
            ],
            [
              73.09564004744375,
              18.827837093186837
            ],
            [
              73.10256573006542,
              18.85399410070728
            ],
            [
              73.10674799998311,
              18.880667362341875
            ],
            [
              73.10814657965126,
              18.9076
            ]
          ]
        ]
      }
    },
    {
      "type": "Feature",
      "properties": {
        "type": "release_point",
        "time_hours": 12
      },
      "geometry": {
        "type": "Point",
        "coordinates": [
          72.8177,
          18.9076
        ]
      }
    },
    {
      "type": "Feature",
      "properties": {
        "type": "vessel",
        "name": "MV Oceanic Star",
        "time_hours": 12
      },
      "geometry": {
        "type": "Point",
        "coordinates": [
          72.8777,
          18.967599999999997
        ]
      }
    }
  ]
}