{
  "type": "FeatureCollection",
  "features": [
    {
      "type": "Feature",
      "properties": {
        "concentration": "VERY_HIGH",
        "time_hours": 24,
        "color": "#8B0000",
        "opacity": 0.8
      },
      "geometry": {
        "type": "Polygon",
        "coordinates": [
          [
            [
              72.93292634799279,
              18.9076
            ],
            [
              72.93237150163264,
              18.91828475133322
            ],
            [
              72.93071230602595,
              18.928866602670226
            ],
            [
              72.92796474013342,
              18.939243644998008
            ],
            [
              72.92415526451657,
              18.949315941726283
            ],
            [
              72.91932056650805,
              18.95898649113148
            ],
            [
              72.9135072068926,
              18.96816216053637
            ],
            [
              72.90677117150125,
              18.976754583228647
            ],
            [
              72.89917733203707,
              18.984681009480695
            ],
            [
              72.89079882132533,
              18.991865103474677
            ],
            [
              72.88171632900436,
              18.998237678458203
            ],
            [
              72.87201732444018,
              19.003737363050586
            ],
            [
              72.86179521434877,
              19.00831119228276
            ],
            [
              72.8511484432383,
              19.011915117678914
            ],
            [
              72.84017954533466,
              19.01451443146738
            ],
            [
              72.82899415712087,
              19.016084100835435
            ],
            [
              72.8177,
              19.01660900900901
            ],
            [
              72.80640584287913,
              19.016084100835435
            ],
            [
              72.79522045466534,
              19.01451443146738
            ],
            [
              72.7842515567617,
              19.011915117678914
            ],
            [
              72.77360478565123,
              19.00831119228276
            ],
            [
              72.76338267555982,
              19.003737363050586
            ],
            [
              72.75368367099564,
              18.998237678458203
            ],
            [
              72.74460117867467,
              18.991865103474677
            ],
            [
              72.73622266796293,
              18.984681009480695
            ],
            [
              72.72862882849876,
              18.976754583228647
            ],
            [
              72.7218927931074,
              18.96816216053637
            ],
            [
              72.71607943349196,
              18.95898649113148
            ],
            [
              72.71124473548343,
              18.949315941726283
            ],
            [
              72.70743525986659,
              18.939243644998008
            ],
            [
              72.70468769397405,
              18.928866602670226
            ],
            [
              72.70302849836736,
              18.91828475133322
            ],
            [
              72.70247365200721,
              18.9076
            ],
            [
              72.70302849836736,
              18.896915248666776
            ],
            [
              72.70468769397405,
              18.88633339732977
            ],
            [
              72.70743525986659,
              18.87595635500199
            ],
            [
              72.71124473548343,
              18.865884058273714
            ],
            [
              72.71607943349196,
              18.856213508868517
            ],
            [
              72.7218927931074,
              18.847037839463628
            ],
            [
              72.72862882849876,
              18.83844541677135
            ],
            [
              72.73622266796293,
              18.830518990519302
            ],
            [
              72.74460117867467,
              18.82333489652532
            ],
            [
              72.75368367099564,
              18.816962321541794
            ],
            [
              72.76338267555982,
              18.81146263694941
            ],
            [
              72.77360478565123,
              18.806888807717236
            ],
            [
              72.7842515567617,
              18.803284882321083
            ],
            [
              72.79522045466534,
              18.800685568532618
            ],
            [
              72.80640584287913,
              18.799115899164562
            ],
            [
              72.8177,
              18.798590990990988
            ],
            [
              72.82899415712087,
              18.799115899164562
            ],
            [
              72.84017954533466,
              18.800685568532618
            ],
            [
              72.8511484432383,
              18.803284882321083
            ],
            [
              72.86179521434877,
              18.806888807717236
            ],
            [
              72.87201732444018,
              18.81146263694941
            ],
            [
              72.88171632900436,
              18.816962321541794
            ],
            [
              72.89079882132533,
              18.82333489652532
            ],
            [
              72.89917733203707,
              18.830518990519302
            ],
            [
              72.90677117150125,
              18.83844541677135
            ],
            [
              72.9135072068926,
              18.847037839463628
            ],
            [
              72.91932056650805,
              18.856213508868517
            ],
            [
              72.92415526451657,
              18.865884058273714
            ],
            [
              72.92796474013342,
              18.87595635500199
            ],
            [
              72.93071230602595,
              18.88633339732977
            ],
            [
              72.93237150163264,
              18.896915248666776
            ],
            [
              72.93292634799279,
              18.9076
            ]
          ]
        ]
      }
    },
    {
      "type": "Feature",
      "properties": {
        "concentration": "HIGH",
        "time_hours": 24,
        "color": "#FF0000",
        "opacity": 0.7
      },
      "geometry": {
        "type": "Polygon",
        "coordinates": [
          [
            [
              73.04815269598559,
              18.9076
            ],
            [
              73.04704300326529,
              18.928969502666444
            ],
            [
              73.0437246120519,
              18.950133205340453
            ],
            [
              73.03822948026684,
              18.970887289996018
            ],
            [
              73.03061052903313,
              18.991031883452568
            ],
            [
              73.0209411330161,
              19.010372982262965
            ],
            [
              73.00931441378522,
              19.02872432107274
            ],
            [
              72.99584234300248,
              19.0459091664573
            ],
            [
              72.98065466407414,
              19.06176201896139
            ],
            [
              72.96389764265066,
              19.07613020694935
            ],
            [
              72.94573265800871,
              19.08887535691641
            ],
            [
              72.92633464888036,
              19.09987472610117
            ],
            [
              72.90589042869756,
              19.109022384565524
            ],
            [
              72.8845968864766,
              19.116230235357833
            ],
            [
              72.86265909066931,
              19.121428862934756
            ],
            [
              72.84028831424175,
              19.124568201670876
            ],
            [
              72.8177,
              19.125618018018017
            ],
            [
              72.79511168575826,
              19.124568201670876
            ],
            [
              72.7727409093307,
              19.121428862934756
            ],
            [
              72.7508031135234,
              19.116230235357833
            ],
            [
              72.72950957130244,
              19.109022384565524
            ],
            [
              72.70906535111965,
              19.09987472610117
            ],
            [
              72.6896673419913,
              19.08887535691641
            ],
            [
              72.67150235734934,
              19.07613020694935
            ],
            [
              72.65474533592587,
              19.06176201896139
            ],
            [
              72.63955765699752,
              19.0459091664573
            ],
            [
              72.62608558621478,
              19.02872432107274
            ],
            [
              72.61445886698391,
              19.010372982262965
            ],
            [
              72.60478947096688,
              18.991031883452568
            ],
            [
              72.59717051973317,
              18.970887289996018
            ],
            [
              72.5916753879481,
              18.950133205340453
            ],
            [
              72.58835699673472,
              18.928969502666444
            ],
            [
              72.58724730401441,
              18.9076
            ],
            [
              72.58835699673472,
              18.886230497333553
            ],
            [
              72.5916753879481,
              18.865066794659544
            ],
            [
              72.59717051973317,
              18.84431271000398
            ],
            [
              72.60478947096688,
              18.82416811654743
            ],
            [
              72.61445886698391,
              18.804827017737033
            ],
            [
              72.62608558621478,
              18.786475678927257
            ],
            [
              72.63955765699752,
              18.769290833542698
            ],
            [
              72.65474533592587,
              18.75343798103861
            ],
            [
              72.67150235734934,
              18.739069793050646
            ],
            [
              72.6896673419913,
              18.726324643083586
            ],
            [
              72.70906535111965,
              18.715325273898827
            ],
            [
              72.72950957130244,
              18.706177615434473
            ],
            [
              72.7508031135234,
              18.698969764642165
            ],
            [
              72.7727409093307,
              18.69377113706524
            ],
            [
              72.79511168575826,
              18.69063179832912
            ],
            [
              72.8177,
              18.68958198198198
            ],
            [
              72.84028831424175,
              18.69063179832912
            ],
            [
              72.86265909066931,
              18.69377113706524
            ],
            [
              72.8845968864766,
              18.698969764642165
            ],
            [
              72.90589042869756,
              18.706177615434473
            ],
            [
              72.92633464888036,
              18.715325273898827
            ],
            [
              72.94573265800871,
              18.726324643083586
            ],
            [
              72.96389764265066,
              18.739069793050646
            ],
            [
              72.98065466407414,
              18.75343798103861
            ],
            [
              72.99584234300248,
              18.769290833542698
            ],
            [
              73.00931441378522,
              18.786475678927257
            ],
            [
              73.0209411330161,
              18.804827017737033
            ],
            [
              73.03061052903313,
              18.82416811654743
            ],
            [
              73.03822948026684,
              18.84431271000398
            ],
            [
              73.0437246120519,
              18.865066794659544
            ],
            [
              73.04704300326529,
              18.886230497333553
            ],
            [
              73.04815269598559,
              18.9076
            ]
          ]
        ]
      }
    },
    {
      "type": "Feature",
      "properties": {
        "concentration": "MEDIUM",
        "time_hours": 24,
        "color": "#FFA500",
        "opacity": 0.6
      },
      "geometry": {
        "type": "Polygon",
        "coordinates": [
          [
            [
              73.16337904397838,
              18.9076
            ],
            [
              73.16171450489793,
              18.939654253999667
            ],
            [
              73.15673691807785,
              18.971399808010677
            ],
            [
              73.14849422040027,
              19.002530934994027
            ],
            [
              73.1370657935497,
              19.032747825178852
            ],
            [
              73.12256169952414,
              19.061759473394446
            ],
            [
              73.10512162067782,
              19.08928648160911
            ],
            [
              73.08491351450373,
              19.115063749685948
            ],
            [
              73.06213199611119,
              19.138843028442086
            ],
            [
              73.036996463976,
              19.16039531042403
            ],
            [
              73.00974898701307,
              19.179513035374615
            ],
            [
              72.98065197332053,
              19.196012089151758
            ],
            [
              72.94998564304633,
              19.209733576848283
            ],
            [
              72.9180453297149,
              19.220545353036748
            ],
            [
              72.88513863600397,
              19.228343294402137
            ],
            [
              72.85158247136262,
              19.233052302506312
            ],
            [
              72.8177,
              19.234627027027024
            ],
            [
              72.78381752863739,
              19.233052302506312
            ],
            [
              72.75026136399603,
              19.228343294402137
            ],
            [
              72.7173546702851,
              19.220545353036748
            ],
            [
              72.68541435695367,
              19.209733576848283
            ],
            [
              72.65474802667947,
              19.196012089151758
            ],
            [
              72.62565101298694,
              19.179513035374615
            ],
            [
              72.59840353602401,
              19.16039531042403
            ],
            [
              72.57326800388881,
              19.138843028442086
            ],
            [
              72.55048648549628,
              19.115063749685948
            ],
            [
              72.53027837932218,
              19.08928648160911
            ],
            [
              72.51283830047586,
              19.061759473394446
            ],
            [
              72.49833420645031,
              19.032747825178852
            ],
            [
              72.48690577959974,
              19.002530934994027
            ],
            [
              72.47866308192215,
              18.971399808010677
            ],
            [
              72.47368549510207,
              18.939654253999667
            ],
            [
              72.47202095602162,
              18.9076
            ],
            [
              72.47368549510207,
              18.87554574600033
            ],
            [
              72.47866308192215,
              18.84380019198932
            ],
            [
              72.48690577959974,
              18.812669065005974
            ],
            [
              72.49833420645031,
              18.782452174821145
            ],
            [
              72.51283830047586,
              18.75344052660555
            ],
            [
              72.53027837932218,
              18.725913518390886
            ],
            [
              72.55048648549628,
              18.70013625031405
            ],
            [
              72.57326800388881,
              18.67635697155791
            ],
            [
              72.59840353602401,
              18.65480468957597
            ],
            [
              72.62565101298694,
              18.635686964625382
            ],
            [
              72.65474802667947,
              18.61918791084824
            ],
            [
              72.68541435695367,
              18.605466423151714
            ],
            [
              72.7173546702851,
              18.59465464696325
            ],
            [
              72.75026136399603,
              18.58685670559786
            ],
            [
              72.78381752863739,
              18.582147697493685
            ],
            [
              72.8177,
              18.580572972972973
            ],
            [
              72.85158247136262,
              18.582147697493685
            ],
            [
              72.88513863600397,
              18.58685670559786
            ],
            [
              72.9180453297149,
              18.59465464696325
            ],
            [
              72.94998564304633,
              18.605466423151714
            ],
            [
              72.98065197332053,
              18.61918791084824
            ],
            [
              73.00974898701307,
              18.635686964625382
            ],
            [
              73.036996463976,
              18.65480468957597
            ],
            [
              73.06213199611119,
              18.67635697155791
            ],
            [
              73.08491351450373,
              18.70013625031405
            ],
            [
              73.10512162067782,
              18.725913518390886
            ],
            [
              73.12256169952414,
              18.75344052660555
            ],
            [
              73.1370657935497,
              18.782452174821145
            ],
            [
              73.14849422040027,
              18.81266906500597
            ],
            [
              73.15673691807785,
              18.84380019198932
            ],
            [
              73.16171450489793,
              18.87554574600033
            ],
            [
              73.16337904397838,
              18.9076
            ]
          ]
        ]
      }
    },
    {
      "type": "Feature",
      "properties": {
        "concentration": "LOW",
        "time_hours": 24,
        "color": "#FFFF00",
        "opacity": 0.5
      },
      "geometry": {
        "type": "Polygon",
        "coordinates": [
          [
            [
              73.39383173996397,
              18.9076
            ],
            [
              73.39105750816321,
              18.961023756666112
            ],
            [
              73.38276153012976,
              19.01393301335113
            ],
            [
              73.3690237006671,
              19.065818224990043
            ],
            [
              73.34997632258282,
              19.11617970863142
            ],
            [
              73.32580283254023,
              19.16453245565741
            ],
            [
              73.29673603446304,
              19.210410802681853
            ],
            [
              73.2630558575062,
              19.253372916143245
            ],
            [
              73.22508666018533,
              19.293005047403476
            ],
            [
              73.18319410662666,
              19.32892551737338
            ],
            [
              73.13778164502178,
              19.360788392291024
            ],
            [
              73.0892866222009,
              19.38828681525293
            ],
            [
              73.03817607174388,
              19.411155961413808
            ],
            [
              72.9849422161915,
              19.429175588394582
            ],
            [
              72.93009772667328,
              19.442172157336895
            ],
            [
              72.87417078560436,
              19.450020504177186
            ],
            [
              72.8177,
              19.452645045045045
            ],
            [
              72.76122921439564,
              19.450020504177186
            ],
            [
              72.70530227332672,
              19.442172157336895
            ],
            [
              72.6504577838085,
              19.429175588394582
            ],
            [
              72.59722392825613,
              19.411155961413808
            ],
            [
              72.5461133777991,
              19.388286815252933
            ],
            [
              72.49761835497823,
              19.360788392291024
            ],
            [
              72.45220589337335,
              19.32892551737338
            ],
            [
              72.41031333981468,
              19.293005047403476
            ],
            [
              72.3723441424938,
              19.253372916143245
            ],
            [
              72.33866396553697,
              19.210410802681853
            ],
            [
              72.30959716745977,
              19.16453245565741
            ],
            [
              72.28542367741719,
              19.11617970863142
            ],
            [
              72.2663762993329,
              19.065818224990043
            ],
            [
              72.25263846987025,
              19.01393301335113
            ],
            [
              72.24434249183679,
              18.961023756666112
            ],
            [
              72.24156826003603,
              18.9076
            ],
            [
              72.24434249183679,
              18.854176243333885
            ],
            [
              72.25263846987025,
              18.801266986648866
            ],
            [
              72.2663762993329,
              18.749381775009955
            ],
            [
              72.28542367741719,
              18.699020291368576
            ],
            [
              72.30959716745977,
              18.650667544342586
            ],
            [
              72.33866396553697,
              18.604789197318144
            ],
            [
              72.3723441424938,
              18.561827083856752
            ],
            [
              72.41031333981468,
              18.52219495259652
            ],
            [
              72.45220589337335,
              18.486274482626616
            ],
            [
              72.49761835497823,
              18.454411607708973
            ],
            [
              72.5461133777991,
              18.426913184747068
            ],
            [
              72.59722392825611,
              18.40404403858619
            ],
            [
              72.6504577838085,
              18.386024411605415
            ],
            [
              72.70530227332672,
              18.373027842663102
            ],
            [
              72.76122921439564,
              18.36517949582281
            ],
            [
              72.8177,
              18.362554954954952
            ],
            [
              72.87417078560436,
              18.36517949582281
            ],
            [
              72.93009772667328,
              18.373027842663102
            ],
            [
              72.9849422161915,
              18.386024411605415
            ],
            [
              73.03817607174388,
              18.40404403858619
            ],
            [
              73.0892866222009,
              18.426913184747065
            ],
            [
              73.13778164502178,
              18.454411607708973
            ],
            [
              73.18319410662666,
              18.486274482626616
            ],
            [
              73.22508666018533,
              18.52219495259652
            ],
            [
              73.2630558575062,
              18.561827083856752
            ],
            [
              73.29673603446304,
              18.604789197318144
            ],
            [
              73.32580283254023,
              18.650667544342586
            ],
            [
              73.34997632258282,
              18.699020291368576
            ],
            [
              73.3690237006671,
              18.749381775009955
            ],
            [
              73.38276153012976,
              18.801266986648866
            ],
            [
              73.39105750816321,
              18.854176243333885
            ],
            [
              73.39383173996397,
              18.9076
            ]
          ]
        ]
      }
    },
    {
      "type": "Feature",
      "properties": {
        "type": "release_point",
        "time_hours": 24
      },
      "geometry": {
        "type": "Point",
        "coordinates": [
          72.8177,
          18.9076
        ]
      }
    },
    {
      "type": "Feature",
      "properties": {
        "type": "vessel",
        "name": "MV Oceanic Star",
        "time_hours": 24
      },
      "geometry": {
        "type": "Point",
        "coordinates": [
          72.9377,
          19.0276
        ]
      }
    }
  ]
}