{
  "type": "FeatureCollection",
  "features": [
    {
      "type": "Feature",
      "properties": {
        "concentration": "VERY_HIGH",
        "time_hours": 36,
        "color": "#8B0000",
        "opacity": 0.8
      },
      "geometry": {
        "type": "Polygon",
        "coordinates": [
          [
            [
              72.99006338005533,
              18.9076
            ],
            [
              72.98923340326867,
              18.92358297513482
            ],
            [
              72.98675146603883,
              18.939412025481907
            ],
            [
              72.98264147077809,
              18.954934708633385
            ],
            [
              72.9769429989876,
              18.970001532664938
            ],
            [
              72.96971093006576,
              18.98446739582478
            ],
            [
              72.96101491278976,
              18.998192983942836
            ],
            [
              72.95093869455971,
              19.01104611210236
            ],
            [
              72.93957931486537,
              19.022902997652942
            ],
            [
              72.92704617074286,
              19.033649452305095
            ],
            [
              72.91345996322138,
              19.04318198182591
            ],
            [
              72.89895153490639,
              19.051408782745092
            ],
            [
              72.88366060989362,
              19.05825062647256
            ],
            [
              72.86773444814985,
              19.06364162231309
            ],
            [
              72.85132642731878,
              19.067529852029715
            ],
            [
              72.83459456561056,
              19.069877869844746
            ],
            [
              72.8177,
              19.070663063063062
            ],
            [
              72.80080543438945,
              19.069877869844746
            ],
            [
              72.78407357268122,
              19.067529852029715
            ],
            [
              72.76766555185016,
              19.06364162231309
            ],
            [
              72.75173939010638,
              19.05825062647256
            ],
            [
              72.73644846509362,
              19.051408782745092
            ],
            [
              72.72194003677862,
              19.04318198182591
            ],
            [
              72.70835382925715,
              19.033649452305095
            ],
            [
              72.69582068513463,
              19.022902997652942
            ],
            [
              72.6844613054403,
              19.01104611210236
            ],
            [
              72.67438508721024,
              18.998192983942836
            ],
            [
              72.66568906993425,
              18.98446739582478
            ],
            [
              72.65845700101241,
              18.970001532664938
            ],
            [
              72.65275852922191,
              18.954934708633385
            ],
            [
              72.64864853396118,
              18.939412025481907
            ],
            [
              72.64616659673133,
              18.92358297513482
            ],
            [
              72.64533661994467,
              18.9076
            ],
            [
              72.64616659673133,
              18.891617024865177
            ],
            [
              72.64864853396118,
              18.87578797451809
            ],
            [
              72.65275852922191,
              18.860265291366613
            ],
            [
              72.65845700101241,
              18.84519846733506
            ],
            [
              72.66568906993425,
              18.830732604175218
            ],
            [
              72.67438508721024,
              18.81700701605716
            ],
            [
              72.6844613054403,
              18.804153887897638
            ],
            [
              72.69582068513463,
              18.792297002347055
            ],
            [
              72.70835382925715,
              18.781550547694902
            ],
            [
              72.72194003677862,
              18.772018018174087
            ],
            [
              72.73644846509362,
              18.763791217254905
            ],
            [
              72.75173939010638,
              18.756949373527437
            ],
            [
              72.76766555185016,
              18.75155837768691
            ],
            [
              72.78407357268122,
              18.747670147970283
            ],
            [
              72.80080543438945,
              18.74532213015525
            ],
            [
              72.8177,
              18.744536936936935
            ],
            [
              72.83459456561056,
              18.74532213015525
            ],
            [
              72.85132642731878,
              18.747670147970283
            ],
            [
              72.86773444814985,
              18.75155837768691
            ],
            [
              72.88366060989362,
              18.756949373527437
            ],
            [
              72.89895153490639,
              18.763791217254905
            ],
            [
              72.91345996322138,
              18.772018018174087
            ],
            [
              72.92704617074286,
              18.781550547694902
            ],
            [
              72.93957931486537,
              18.792297002347055
            ],
            [
              72.95093869455971,
              18.804153887897638
            ],
            [
              72.96101491278976,
              18.81700701605716
            ],
            [
              72.96971093006576,
              18.830732604175218
            ],
            [
              72.9769429989876,
              18.84519846733506
            ],
            [
              72.98264147077809,
              18.860265291366613
            ],
            [
              72.98675146603883,
              18.87578797451809
            ],
            [
              72.98923340326867,
              18.891617024865177
            ],
            [
              72.99006338005533,
              18.9076
            ]
          ]
        ]
      }
    },
    {
      "type": "Feature",
      "properties": {
        "concentration": "HIGH",
        "time_hours": 36,
        "color": "#FF0000",
        "opacity": 0.7
      },
      "geometry": {
        "type": "Polygon",
        "coordinates": [
          [
            [
              73.16242676011068,
              18.9076
            ],
            [
              73.16076680653732,
              18.93956595026964
            ],
            [
              73.15580293207765,
              18.971224050963816
            ],
            [
              73.14758294155618,
              19.00226941726677
            ],
            [
              73.13618599797518,
              19.032403065329873
            ],
            [
              73.12172186013152,
              19.061334791649557
            ],
            [
              73.10432982557953,
              19.08878596788567
            ],
            [
              73.08417738911942,
              19.114492224204717
            ],
            [
              73.06145862973072,
              19.13820599530588
            ],
            [
              73.03639234148571,
              19.159698904610188
            ],
            [
              73.00921992644278,
              19.178763963651818
            ],
            [
              72.98020306981277,
              19.195217565490182
            ],
            [
              72.94962121978725,
              19.20890125294512
            ],
            [
              72.9177688962997,
              19.21968324462618
            ],
            [
              72.88495285463758,
              19.22745970405943
            ],
            [
              72.85148913122113,
              19.23215573968949
            ],
            [
              72.8177,
              19.233726126126125
            ],
            [
              72.78391086877888,
              19.23215573968949
            ],
            [
              72.75044714536243,
              19.22745970405943
            ],
            [
              72.7176311037003,
              19.21968324462618
            ],
            [
              72.68577878021276,
              19.20890125294512
            ],
            [
              72.65519693018723,
              19.195217565490182
            ],
            [
              72.62618007355722,
              19.17876396365182
            ],
            [
              72.5990076585143,
              19.159698904610188
            ],
            [
              72.57394137026928,
              19.13820599530588
            ],
            [
              72.55122261088059,
              19.114492224204717
            ],
            [
              72.53107017442048,
              19.08878596788567
            ],
            [
              72.51367813986849,
              19.061334791649557
            ],
            [
              72.49921400202483,
              19.032403065329873
            ],
            [
              72.48781705844382,
              19.00226941726677
            ],
            [
              72.47959706792236,
              18.971224050963816
            ],
            [
              72.47463319346268,
              18.93956595026964
            ],
            [
              72.47297323988933,
              18.9076
            ],
            [
              72.47463319346268,
              18.87563404973036
            ],
            [
              72.47959706792236,
              18.84397594903618
            ],
            [
              72.48781705844382,
              18.812930582733227
            ],
            [
              72.49921400202483,
              18.782796934670124
            ],
            [
              72.51367813986849,
              18.75386520835044
            ],
            [
              72.53107017442048,
              18.726414032114327
            ],
            [
              72.55122261088059,
              18.70070777579528
            ],
            [
              72.57394137026928,
              18.676994004694116
            ],
            [
              72.5990076585143,
              18.65550109538981
            ],
            [
              72.62618007355722,
              18.63643603634818
            ],
            [
              72.65519693018723,
              18.619982434509815
            ],
            [
              72.68577878021276,
              18.606298747054876
            ],
            [
              72.7176311037003,
              18.59551675537382
            ],
            [
              72.75044714536243,
              18.587740295940566
            ],
            [
              72.78391086877888,
              18.58304426031051
            ],
            [
              72.8177,
              18.581473873873872
            ],
            [
              72.85148913122113,
              18.58304426031051
            ],
            [
              72.88495285463758,
              18.587740295940566
            ],
            [
              72.9177688962997,
              18.59551675537382
            ],
            [
              72.94962121978725,
              18.606298747054876
            ],
            [
              72.98020306981277,
              18.619982434509815
            ],
            [
              73.00921992644278,
              18.636436036348176
            ],
            [
              73.03639234148571,
              18.65550109538981
            ],
            [
              73.06145862973072,
              18.676994004694116
            ],
            [
              73.08417738911942,
              18.700707775795276
            ],
            [
              73.10432982557953,
              18.726414032114327
            ],
            [
              73.12172186013152,
              18.75386520835044
            ],
            [
              73.13618599797518,
              18.782796934670124
            ],
            [
              73.14758294155618,
              18.812930582733227
            ],
            [
              73.15580293207765,
              18.84397594903618
            ],
            [
              73.16076680653732,
              18.87563404973036
            ],
            [
              73.16242676011068,
              18.9076
            ]
          ]
        ]
      }
    },
    {
      "type": "Feature",
      "properties": {
        "concentration": "MEDIUM",
        "time_hours": 36,
        "color": "#FFA500",
        "opacity": 0.6
      },
      "geometry": {
        "type": "Polygon",
        "coordinates": [
          [
            [
              73.334790140166,
              18.9076
            ],
            [
              73.332300209806,
              18.95554892540446
            ],
            [
              73.32485439811646,
              19.003036076445728
            ],
            [
              73.31252441233427,
              19.049604125900153
            ],
            [
              73.29542899696277,
              19.094804597994813
            ],
            [
              73.27373279019727,
              19.138202187474338
            ],
            [
              73.2476447383693,
              19.179378951828507
            ],
            [
              73.21741608367913,
              19.21793833630708
            ],
            [
              73.18333794459609,
              19.253508992958825
            ],
            [
              73.14573851222855,
              19.285748356915285
            ],
            [
              73.10497988966416,
              19.31434594547773
            ],
            [
              73.06145460471916,
              19.339026348235276
            ],
            [
              73.01558182968087,
              19.359551879417683
            ],
            [
              72.96780334444955,
              19.37572486693927
            ],
            [
              72.91857928195635,
              19.387389556089147
            ],
            [
              72.86838369683169,
              19.394433609534236
            ],
            [
              72.8177,
              19.39678918918919
            ],
            [
              72.76701630316832,
              19.394433609534236
            ],
            [
              72.71682071804365,
              19.387389556089147
            ],
            [
              72.66759665555045,
              19.37572486693927
            ],
            [
              72.61981817031914,
              19.359551879417683
            ],
            [
              72.57394539528084,
              19.339026348235276
            ],
            [
              72.53042011033584,
              19.31434594547773
            ],
            [
              72.48966148777146,
              19.285748356915285
            ],
            [
              72.45206205540391,
              19.253508992958825
            ],
            [
              72.41798391632088,
              19.21793833630708
            ],
            [
              72.3877552616307,
              19.179378951828507
            ],
            [
              72.36166720980273,
              19.138202187474338
            ],
            [
              72.33997100303723,
              19.094804597994813
            ],
            [
              72.32287558766573,
              19.049604125900153
            ],
            [
              72.31054560188355,
              19.003036076445728
            ],
            [
              72.30309979019401,
              18.95554892540446
            ],
            [
              72.300609859834,
              18.9076
            ],
            [
              72.30309979019401,
              18.859651074595536
            ],
            [
              72.31054560188355,
              18.81216392355427
            ],
            [
              72.32287558766573,
              18.765595874099844
            ],
            [
              72.33997100303723,
              18.720395402005185
            ],
            [
              72.36166720980273,
              18.67699781252566
            ],
            [
              72.3877552616307,
              18.63582104817149
            ],
            [
              72.41798391632088,
              18.59726166369292
            ],
            [
              72.45206205540391,
              18.561691007041173
            ],
            [
              72.48966148777146,
              18.529451643084712
            ],
            [
              72.53042011033584,
              18.500854054522268
            ],
            [
              72.57394539528084,
              18.47617365176472
            ],
            [
              72.61981817031914,
              18.455648120582314
            ],
            [
              72.66759665555045,
              18.43947513306073
            ],
            [
              72.71682071804365,
              18.42781044391085
            ],
            [
              72.76701630316832,
              18.42076639046576
            ],
            [
              72.8177,
              18.41841081081081
            ],
            [
              72.86838369683169,
              18.42076639046576
            ],
            [
              72.91857928195635,
              18.42781044391085
            ],
            [
              72.96780334444955,
              18.43947513306073
            ],
            [
              73.01558182968087,
              18.455648120582314
            ],
            [
              73.06145460471916,
              18.47617365176472
            ],
            [
              73.10497988966416,
              18.500854054522268
            ],
            [
              73.14573851222855,
              18.529451643084712
            ],
            [
              73.18333794459609,
              18.561691007041173
            ],
            [
              73.21741608367913,
              18.59726166369292
            ],
            [
              73.2476447383693,
              18.63582104817149
            ],
            [
              73.27373279019727,
              18.67699781252566
            ],
            [
              73.29542899696277,
              18.720395402005185
            ],
            [
              73.31252441233427,
              18.765595874099844
            ],
            [
              73.32485439811646,
              18.81216392355427
            ],
            [
              73.332300209806,
              18.859651074595536
            ],
            [
              73.334790140166,
              18.9076
            ]
          ]
        ]
      }
    },
    {
      "type": "Feature",
      "properties": {
        "concentration": "LOW",
        "time_hours": 36,
        "color": "#FFFF00",
        "opacity": 0.5
      },
      "geometry": {
        "type": "Polygon",
        "coordinates": [
          [
            [
              73.67951690027668,
              18.9076
            ],
            [
              73.67536701634333,
              18.9875148756741
            ],
            [
              73.6629573301941,
              19.066660127409545
            ],
            [
              73.64240735389045,
              19.144273543166925
            ],
            [
              73.61391499493794,
              19.219607663324688
            ],
            [
              73.57775465032879,
              19.291936979123896
            ],
            [
              73.53427456394883,
              19.36056491971418
            ],
            [
              73.48389347279854,
              19.4248305605118
            ],
            [
              73.42709657432681,
              19.484114988264707
            ],
            [
              73.36443085371425,
              19.537847261525474
            ],
            [
              73.29649981610694,
              19.585509909129552
            ],
            [
              73.22395767453192,
              19.62664391372546
            ],
            [
              73.14750304946813,
              19.660853132362803
            ],
            [
              73.06787224074925,
              19.68780811156545
            ],
            [
              72.98583213659391,
              19.70724926014858
            ],
            [
              72.90217282805281,
              19.718989349223726
            ],
            [
              72.8177,
              19.722915315315316
            ],
            [
              72.73322717194719,
              19.718989349223726
            ],
            [
              72.64956786340609,
              19.70724926014858
            ],
            [
              72.56752775925075,
              19.68780811156545
            ],
            [
              72.48789695053188,
              19.660853132362803
            ],
            [
              72.41144232546809,
              19.62664391372546
            ],
            [
              72.33890018389306,
              19.585509909129552
            ],
            [
              72.27096914628575,
              19.537847261525474
            ],
            [
              72.2083034256732,
              19.484114988264707
            ],
            [
              72.15150652720146,
              19.4248305605118
            ],
            [
              72.10112543605118,
              19.36056491971418
            ],
            [
              72.05764534967122,
              19.291936979123896
            ],
            [
              72.02148500506206,
              19.219607663324688
            ],
            [
              71.99299264610956,
              19.144273543166925
            ],
            [
              71.9724426698059,
              19.066660127409545
            ],
            [
              71.96003298365667,
              18.9875148756741
            ],
            [
              71.95588309972332,
              18.9076
            ],
            [
              71.96003298365667,
              18.827685124325896
            ],
            [
              71.9724426698059,
              18.748539872590452
            ],
            [
              71.99299264610956,
              18.670926456833072
            ],
            [
              72.02148500506206,
              18.59559233667531
            ],
            [
              72.05764534967122,
              18.5232630208761
            ],
            [
              72.10112543605118,
              18.45463508028582
            ],
            [
              72.15150652720146,
              18.390369439488197
            ],
            [
              72.2083034256732,
              18.33108501173529
            ],
            [
              72.27096914628575,
              18.277352738474523
            ],
            [
              72.33890018389306,
              18.229690090870445
            ],
            [
              72.41144232546809,
              18.188556086274538
            ],
            [
              72.48789695053188,
              18.154346867637194
            ],
            [
              72.56752775925075,
              18.12739188843455
            ],
            [
              72.64956786340609,
              18.107950739851418
            ],
            [
              72.73322717194719,
              18.09621065077627
            ],
            [
              72.8177,
              18.09228468468468
            ],
            [
              72.90217282805281,
              18.09621065077627
            ],
            [
              72.98583213659391,
              18.107950739851418
            ],
            [
              73.06787224074925,
              18.12739188843455
            ],
            [
              73.14750304946813,
              18.154346867637194
            ],
            [
              73.22395767453192,
              18.188556086274538
            ],
            [
              73.29649981610694,
              18.229690090870445
            ],
            [
              73.36443085371425,
              18.277352738474523
            ],
            [
              73.42709657432681,
              18.33108501173529
            ],
            [
              73.48389347279854,
              18.390369439488197
            ],
            [
              73.53427456394883,
              18.45463508028582
            ],
            [
              73.57775465032879,
              18.5232630208761
            ],
            [
              73.61391499493794,
              18.595592336675306
            ],
            [
              73.64240735389045,
              18.670926456833072
            ],
            [
              73.6629573301941,
              18.748539872590452
            ],
            [
              73.67536701634333,
              18.827685124325896
            ],
            [
              73.67951690027668,
              18.9076
            ]
          ]
        ]
      }
    },
    {
      "type": "Feature",
      "properties": {
        "type": "release_point",
        "time_hours": 36
      },
      "geometry": {
        "type": "Point",
        "coordinates": [
          72.8177,
          18.9076
        ]
      }
    },
    {
      "type": "Feature",
      "properties": {
        "type": "vessel",
        "name": "MV Oceanic Star",
        "time_hours": 36
      },
      "geometry": {
        "type": "Point",
        "coordinates": [
          72.99770000000001,
          19.0876
        ]
      }
    }
  ]
}