{
  "type": "FeatureCollection",
  "features": [
    {
      "type": "Feature",
      "properties": {
        "concentration": "VERY_HIGH",
        "time_hours": 48,
        "color": "#8B0000",
        "opacity": 0.8
      },
      "geometry": {
        "type": "Polygon",
        "coordinates": [
          [
            [
              73.04720041211787,
              18.9076
            ],
            [
              73.04609530490468,
              18.928881198936416
            ],
            [
              73.0427906260517,
              18.949957448293592
            ],
            [
              73.03731820142276,
              18.97062577226876
            ],
            [
              73.02973073345862,
              18.99068712360359
            ],
            [
              73.02010129362347,
              19.009948300518076
            ],
            [
              73.00852261868692,
              19.0282238073493
            ],
            [
              72.99510621761817,
              19.04533764097607
            ],
            [
              72.97998129769366,
              19.061124985825185
            ],
            [
              72.96329352016038,
              19.07543380113551
            ],
            [
              72.94520359743842,
              19.088126285193614
            ],
            [
              72.9258857453726,
              19.099080202439595
            ],
            [
              72.90552600543847,
              19.10819006066236
            ],
            [
              72.8843204530614,
              19.115368126947264
            ],
            [
              72.86247330930291,
              19.12054527259205
            ],
            [
              72.84019497410026,
              19.123671638854052
            ],
            [
              72.8177,
              19.124717117117115
            ],
            [
              72.79520502589975,
              19.123671638854052
            ],
            [
              72.77292669069709,
              19.12054527259205
            ],
            [
              72.7510795469386,
              19.115368126947264
            ],
            [
              72.72987399456153,
              19.10819006066236
            ],
            [
              72.70951425462741,
              19.099080202439595
            ],
            [
              72.69019640256158,
              19.088126285193614
            ],
            [
              72.67210647983963,
              19.07543380113551
            ],
            [
              72.65541870230635,
              19.061124985825185
            ],
            [
              72.64029378238183,
              19.04533764097607
            ],
            [
              72.62687738131308,
              19.0282238073493
            ],
            [
              72.61529870637654,
              19.009948300518076
            ],
            [
              72.60566926654138,
              18.99068712360359
            ],
            [
              72.59808179857724,
              18.97062577226876
            ],
            [
              72.5926093739483,
              18.949957448293592
            ],
            [
              72.58930469509532,
              18.928881198936416
            ],
            [
              72.58819958788213,
              18.9076
            ],
            [
              72.58930469509532,
              18.88631880106358
            ],
            [
              72.5926093739483,
              18.865242551706405
            ],
            [
              72.59808179857724,
              18.844574227731236
            ],
            [
              72.60566926654138,
              18.82451287639641
            ],
            [
              72.61529870637654,
              18.80525169948192
            ],
            [
              72.62687738131308,
              18.786976192650698
            ],
            [
              72.64029378238183,
              18.76986235902393
            ],
            [
              72.65541870230635,
              18.754075014174813
            ],
            [
              72.67210647983963,
              18.739766198864487
            ],
            [
              72.69019640256158,
              18.727073714806384
            ],
            [
              72.70951425462741,
              18.716119797560403
            ],
            [
              72.72987399456153,
              18.707009939337638
            ],
            [
              72.7510795469386,
              18.699831873052734
            ],
            [
              72.77292669069709,
              18.694654727407947
            ],
            [
              72.79520502589975,
              18.691528361145945
            ],
            [
              72.8177,
              18.690482882882883
            ],
            [
              72.84019497410026,
              18.691528361145945
            ],
            [
              72.86247330930291,
              18.694654727407947
            ],
            [
              72.8843204530614,
              18.699831873052734
            ],
            [
              72.90552600543847,
              18.707009939337638
            ],
            [
              72.9258857453726,
              18.716119797560403
            ],
            [
              72.94520359743842,
              18.727073714806384
            ],
            [
              72.96329352016038,
              18.739766198864487
            ],
            [
              72.97998129769366,
              18.754075014174813
            ],
            [
              72.99510621761817,
              18.76986235902393
            ],
            [
              73.00852261868692,
              18.786976192650698
            ],
            [
              73.02010129362347,
              18.80525169948192
            ],
            [
              73.02973073345862,
              18.82451287639641
            ],
            [
              73.03731820142276,
              18.844574227731236
            ],
            [
              73.0427906260517,
              18.865242551706405
            ],
            [
              73.04609530490468,
              18.88631880106358
            ],
            [
              73.04720041211787,
              18.9076
            ]
          ]
        ]
      }
    },
    {
      "type": "Feature",
      "properties": {
        "concentration": "HIGH",
        "time_hours": 48,
        "color": "#FF0000",
        "opacity": 0.7
      },
      "geometry": {
        "type": "Polygon",
        "coordinates": [
          [
            [
              73.27670082423576,
              18.9076
            ],
            [
              73.27449060980938,
              18.950162397872834
            ],
            [
              73.26788125210338,
              18.99231489658718
            ],
            [
              73.25693640284553,
              19.033651544537523
            ],
            [
              73.24176146691723,
              19.073774247207183
            ],
            [
              73.22250258724694,
              19.112296601036153
            ],
            [
              73.19934523737385,
              19.1488476146986
            ],
            [
              73.17251243523636,
              19.18307528195214
            ],
            [
              73.14226259538732,
              19.214649971650374
            ],
            [
              73.10888704032074,
              19.243267602271025
            ],
            [
              73.07270719487686,
              19.26865257038723
            ],
            [
              73.03407149074518,
              19.290560404879194
            ],
            [
              72.99335201087695,
              19.30878012132472
            ],
            [
              72.95094090612281,
              19.323136253894525
            ],
            [
              72.90724661860583,
              19.333490545184105
            ],
            [
              72.8626899482005,
              19.339743277708106
            ],
            [
              72.8177,
              19.341834234234234
            ],
            [
              72.7727100517995,
              19.339743277708106
            ],
            [
              72.72815338139418,
              19.333490545184105
            ],
            [
              72.6844590938772,
              19.323136253894525
            ],
            [
              72.64204798912306,
              19.30878012132472
            ],
            [
              72.60132850925483,
              19.290560404879194
            ],
            [
              72.56269280512315,
              19.26865257038723
            ],
            [
              72.52651295967927,
              19.243267602271025
            ],
            [
              72.49313740461268,
              19.214649971650374
            ],
            [
              72.46288756476365,
              19.18307528195214
            ],
            [
              72.43605476262616,
              19.1488476146986
            ],
            [
              72.41289741275307,
              19.112296601036153
            ],
            [
              72.39363853308278,
              19.073774247207183
            ],
            [
              72.37846359715448,
              19.033651544537523
            ],
            [
              72.36751874789663,
              18.99231489658718
            ],
            [
              72.36090939019063,
              18.950162397872834
            ],
            [
              72.35869917576424,
              18.9076
            ],
            [
              72.36090939019063,
              18.865037602127163
            ],
            [
              72.36751874789663,
              18.822885103412816
            ],
            [
              72.37846359715448,
              18.781548455462474
            ],
            [
              72.39363853308278,
              18.741425752792814
            ],
            [
              72.41289741275307,
              18.702903398963844
            ],
            [
              72.43605476262616,
              18.666352385301398
            ],
            [
              72.46288756476365,
              18.63212471804786
            ],
            [
              72.49313740461268,
              18.600550028349623
            ],
            [
              72.52651295967927,
              18.571932397728972
            ],
            [
              72.56269280512315,
              18.54654742961277
            ],
            [
              72.60132850925483,
              18.524639595120803
            ],
            [
              72.64204798912306,
              18.506419878675278
            ],
            [
              72.6844590938772,
              18.492063746105472
            ],
            [
              72.72815338139418,
              18.481709454815892
            ],
            [
              72.7727100517995,
              18.47545672229189
            ],
            [
              72.8177,
              18.473365765765763
            ],
            [
              72.8626899482005,
              18.47545672229189
            ],
            [
              72.90724661860583,
              18.481709454815892
            ],
            [
              72.95094090612281,
              18.492063746105472
            ],
            [
              72.99335201087695,
              18.506419878675278
            ],
            [
              73.03407149074518,
              18.524639595120803
            ],
            [
              73.07270719487686,
              18.54654742961277
            ],
            [
              73.10888704032074,
              18.571932397728972
            ],
            [
              73.14226259538732,
              18.600550028349623
            ],
            [
              73.17251243523636,
              18.632124718047855
            ],
            [
              73.19934523737385,
              18.666352385301398
            ],
            [
              73.22250258724694,
              18.702903398963844
            ],
            [
              73.24176146691723,
              18.741425752792814
            ],
            [
              73.25693640284553,
              18.781548455462474
            ],
            [
              73.26788125210338,
              18.822885103412816
            ],
            [
              73.27449060980938,
              18.865037602127163
            ],
            [
              73.27670082423576,
              18.9076
            ]
          ]
        ]
      }
    },
    {
      "type": "Feature",
      "properties": {
        "concentration": "MEDIUM",
        "time_hours": 48,
        "color": "#FFA500",
        "opacity": 0.6
      },
      "geometry": {
        "type": "Polygon",
        "coordinates": [
          [
            [
              73.50620123635363,
              18.9076
            ],
            [
              73.50288591471406,
              18.97144359680925
            ],
            [
              73.49297187815507,
              19.034672344880775
            ],
            [
              73.47655460426829,
              19.096677316806282
            ],
            [
              73.45379220037584,
              19.156861370810773
            ],
            [
              73.4249038808704,
              19.21464490155423
            ],
            [
              73.39016785606078,
              19.2694714220479
            ],
            [
              73.34991865285453,
              19.320812922928212
            ],
            [
              73.30454389308098,
              19.36817495747556
            ],
            [
              73.25448056048111,
              19.411101403406537
            ],
            [
              73.20021079231527,
              19.449178855580847
            ],
            [
              73.14225723611777,
              19.48204060731879
            ],
            [
              73.08117801631542,
              19.50937018198708
            ],
            [
              73.01756135918421,
              19.53090438084179
            ],
            [
              72.95201992790874,
              19.546435817776157
            ],
            [
              72.88518492230075,
              19.55581491656216
            ],
            [
              72.8177,
              19.55895135135135
            ],
            [
              72.75021507769925,
              19.55581491656216
            ],
            [
              72.68338007209127,
              19.546435817776157
            ],
            [
              72.61783864081579,
              19.53090438084179
            ],
            [
              72.55422198368458,
              19.50937018198708
            ],
            [
              72.49314276388223,
              19.48204060731879
            ],
            [
              72.43518920768473,
              19.449178855580847
            ],
            [
              72.38091943951889,
              19.411101403406537
            ],
            [
              72.33085610691903,
              19.36817495747556
            ],
            [
              72.28548134714548,
              19.320812922928212
            ],
            [
              72.24523214393922,
              19.2694714220479
            ],
            [
              72.2104961191296,
              19.21464490155423
            ],
            [
              72.18160779962416,
              19.156861370810773
            ],
            [
              72.15884539573172,
              19.096677316806282
            ],
            [
              72.14242812184493,
              19.034672344880775
            ],
            [
              72.13251408528595,
              18.97144359680925
            ],
            [
              72.12919876364637,
              18.9076
            ],
            [
              72.13251408528595,
              18.843756403190746
            ],
            [
              72.14242812184493,
              18.780527655119222
            ],
            [
              72.15884539573172,
              18.718522683193715
            ],
            [
              72.18160779962416,
              18.658338629189224
            ],
            [
              72.2104961191296,
              18.600555098445767
            ],
            [
              72.24523214393922,
              18.545728577952097
            ],
            [
              72.28548134714548,
              18.494387077071785
            ],
            [
              72.33085610691903,
              18.447025042524437
            ],
            [
              72.38091943951889,
              18.40409859659346
            ],
            [
              72.43518920768473,
              18.36602114441915
            ],
            [
              72.49314276388223,
              18.333159392681207
            ],
            [
              72.55422198368458,
              18.305829818012917
            ],
            [
              72.61783864081579,
              18.284295619158208
            ],
            [
              72.68338007209127,
              18.26876418222384
            ],
            [
              72.75021507769925,
              18.259385083437838
            ],
            [
              72.8177,
              18.256248648648647
            ],
            [
              72.88518492230075,
              18.259385083437838
            ],
            [
              72.95201992790874,
              18.26876418222384
            ],
            [
              73.01756135918421,
              18.284295619158208
            ],
            [
              73.08117801631542,
              18.305829818012917
            ],
            [
              73.14225723611777,
              18.333159392681207
            ],
            [
              73.20021079231527,
              18.36602114441915
            ],
            [
              73.25448056048111,
              18.40409859659346
            ],
            [
              73.30454389308098,
              18.447025042524437
            ],
            [
              73.34991865285453,
              18.494387077071785
            ],
            [
              73.39016785606078,
              18.545728577952097
            ],
            [
              73.4249038808704,
              18.600555098445767
            ],
            [
              73.45379220037584,
              18.658338629189224
            ],
            [
              73.47655460426829,
              18.718522683193715
            ],
            [
              73.49297187815507,
              18.780527655119222
            ],
            [
              73.50288591471406,
              18.843756403190746
            ],
            [
              73.50620123635363,
              18.9076
            ]
          ]
        ]
      }
    },
    {
      "type": "Feature",
      "properties": {
        "concentration": "LOW",
        "time_hours": 48,
        "color": "#FFFF00",
        "opacity": 0.5
      },
      "geometry": {
        "type": "Polygon",
        "coordinates": [
          [
            [
              73.96520206058939,
              18.9076
            ],
            [
              73.95967652452343,
              19.01400599468209
            ],
            [
              73.94315313025845,
              19.119387241467958
            ],
            [
              73.91579100711381,
              19.222728861343807
            ],
            [
              73.87785366729307,
              19.323035618017958
            ],
            [
              73.82970646811734,
              19.419341502590385
            ],
            [
              73.77181309343463,
              19.510719036746504
            ],
            [
              73.70473108809088,
              19.596288204880352
            ],
            [
              73.6291064884683,
              19.675224929125935
            ],
            [
              73.54566760080185,
              19.746769005677564
            ],
            [
              73.45521798719211,
              19.810231425968077
            ],
            [
              73.35862872686295,
              19.865001012197986
            ],
            [
              73.25683002719236,
              19.9105503033118
            ],
            [
              73.15080226530702,
              19.946440634736316
            ],
            [
              73.04156654651456,
              19.972326362960263
            ],
            [
              72.93017487050125,
              19.987958194270266
            ],
            [
              72.8177,
              19.993185585585586
            ],
            [
              72.70522512949876,
              19.987958194270266
            ],
            [
              72.59383345348544,
              19.972326362960263
            ],
            [
              72.48459773469298,
              19.946440634736316
            ],
            [
              72.37856997280764,
              19.9105503033118
            ],
            [
              72.27677127313706,
              19.865001012197986
            ],
            [
              72.18018201280789,
              19.810231425968077
            ],
            [
              72.08973239919816,
              19.746769005677564
            ],
            [
              72.00629351153171,
              19.675224929125935
            ],
            [
              71.93066891190912,
              19.596288204880352
            ],
            [
              71.86358690656537,
              19.510719036746504
            ],
            [
              71.80569353188267,
              19.419341502590385
            ],
            [
              71.75754633270694,
              19.323035618017958
            ],
            [
              71.7196089928862,
              19.222728861343807
            ],
            [
              71.69224686974155,
              19.119387241467958
            ],
            [
              71.67572347547657,
              19.01400599468209
            ],
            [
              71.67019793941061,
              18.9076
            ],
            [
              71.67572347547657,
              18.801194005317907
            ],
            [
              71.69224686974155,
              18.69581275853204
            ],
            [
              71.7196089928862,
              18.59247113865619
            ],
            [
              71.75754633270694,
              18.49216438198204
            ],
            [
              71.80569353188267,
              18.395858497409613
            ],
            [
              71.86358690656537,
              18.304480963253493
            ],
            [
              71.93066891190912,
              18.218911795119645
            ],
            [
              72.00629351153171,
              18.139975070874062
            ],
            [
              72.08973239919816,
              18.068430994322433
            ],
            [
              72.18018201280789,
              18.00496857403192
            ],
            [
              72.27677127313706,
              17.95019898780201
            ],
            [
              72.37856997280764,
              17.904649696688196
            ],
            [
              72.48459773469298,
              17.86875936526368
            ],
            [
              72.59383345348544,
              17.842873637039734
            ],
            [
              72.70522512949876,
              17.82724180572973
            ],
            [
              72.8177,
              17.82201441441441
            ],
            [
              72.93017487050125,
              17.82724180572973
            ],
            [
              73.04156654651456,
              17.842873637039734
            ],
            [
              73.15080226530702,
              17.86875936526368
            ],
            [
              73.25683002719236,
              17.904649696688196
            ],
            [
              73.35862872686295,
              17.95019898780201
            ],
            [
              73.45521798719211,
              18.00496857403192
            ],
            [
              73.54566760080185,
              18.068430994322433
            ],
            [
              73.6291064884683,
              18.139975070874062
            ],
            [
              73.70473108809088,
              18.218911795119645
            ],
            [
              73.77181309343463,
              18.304480963253493
            ],
            [
              73.82970646811734,
              18.395858497409613
            ],
            [
              73.87785366729307,
              18.49216438198204
            ],
            [
              73.91579100711381,
              18.59247113865619
            ],
            [
              73.94315313025845,
              18.69581275853204
            ],
            [
              73.95967652452343,
              18.801194005317907
            ],
            [
              73.96520206058939,
              18.9076
            ]
          ]
        ]
      }
    },
    {
      "type": "Feature",
      "properties": {
        "type": "release_point",
        "time_hours": 48
      },
      "geometry": {
        "type": "Point",
        "coordinates": [
          72.8177,
          18.9076
        ]
      }
    },
    {
      "type": "Feature",
      "properties": {
        "type": "vessel",
        "name": "MV Oceanic Star",
        "time_hours": 48
      },
      "geometry": {
        "type": "Point",
        "coordinates": [
          73.0577,
          19.147599999999997
        ]
      }
    }
  ]
}