{
  "type": "FeatureCollection",
  "features": [
    {
      "type": "Feature",
      "properties": {
        "concentration": "VERY_HIGH",
        "time_hours": 60,
        "color": "#8B0000",
        "opacity": 0.8
      },
      "geometry": {
        "type": "Polygon",
        "coordinates": [
          [
            [
              73.10433744418042,
              18.9076
            ],
            [
              73.10295720654071,
              18.934179422738016
            ],
            [
              73.09882978606456,
              18.960502871105273
            ],
            [
              73.09199493206744,
              18.986316835904137
            ],
            [
              73.08251846792963,
              19.011372714542244
            ],
            [
              73.07049165718118,
              19.035429205211372
            ],
            [
              73.05603032458409,
              19.058254630755766
            ],
            [
              73.03927374067665,
              19.07962916984978
            ],
            [
              73.02038328052195,
              19.09934697399743
            ],
            [
              72.99954086957788,
              19.11721814996593
            ],
            [
              72.97694723165546,
              19.13307058856132
            ],
            [
              72.95281995583879,
              19.1467516221341
            ],
            [
              72.92739140098332,
              19.158129494852158
            ],
            [
              72.90090645797297,
              19.167094631581435
            ],
            [
              72.87362019128705,
              19.17356069315439
            ],
            [
              72.84579538258994,
              19.17746540786336
            ],
            [
              72.8177,
              19.17877117117117
            ],
            [
              72.78960461741006,
              19.17746540786336
            ],
            [
              72.76177980871296,
              19.17356069315439
            ],
            [
              72.73449354202704,
              19.167094631581435
            ],
            [
              72.70800859901668,
              19.158129494852158
            ],
            [
              72.68258004416121,
              19.1467516221341
            ],
            [
              72.65845276834455,
              19.13307058856132
            ],
            [
              72.63585913042212,
              19.11721814996593
            ],
            [
              72.61501671947805,
              19.09934697399743
            ],
            [
              72.59612625932336,
              19.07962916984978
            ],
            [
              72.57936967541592,
              19.058254630755766
            ],
            [
              72.56490834281882,
              19.035429205211372
            ],
            [
              72.55288153207037,
              19.011372714542244
            ],
            [
              72.54340506793257,
              18.986316835904137
            ],
            [
              72.53657021393545,
              18.960502871105273
            ],
            [
              72.5324427934593,
              18.934179422738016
            ],
            [
              72.53106255581959,
              18.9076
            ],
            [
              72.5324427934593,
              18.88102057726198
            ],
            [
              72.53657021393545,
              18.854697128894724
            ],
            [
              72.54340506793257,
              18.82888316409586
            ],
            [
              72.55288153207037,
              18.803827285457754
            ],
            [
              72.56490834281882,
              18.779770794788625
            ],
            [
              72.57936967541592,
              18.75694536924423
            ],
            [
              72.59612625932336,
              18.735570830150216
            ],
            [
              72.61501671947805,
              18.715853026002566
            ],
            [
              72.63585913042212,
              18.69798185003407
            ],
            [
              72.65845276834455,
              18.682129411438677
            ],
            [
              72.68258004416121,
              18.668448377865897
            ],
            [
              72.70800859901668,
              18.65707050514784
            ],
            [
              72.73449354202704,
              18.648105368418562
            ],
            [
              72.76177980871296,
              18.641639306845608
            ],
            [
              72.78960461741006,
              18.63773459213664
            ],
            [
              72.8177,
              18.636428828828826
            ],
            [
              72.84579538258994,
              18.63773459213664
            ],
            [
              72.87362019128705,
              18.641639306845608
            ],
            [
              72.90090645797297,
              18.648105368418562
            ],
            [
              72.92739140098332,
              18.65707050514784
            ],
            [
              72.95281995583879,
              18.668448377865897
            ],
            [
              72.97694723165546,
              18.682129411438677
            ],
            [
              72.99954086957788,
              18.69798185003407
            ],
            [
              73.02038328052195,
              18.715853026002566
            ],
            [
              73.03927374067665,
              18.735570830150216
            ],
            [
              73.05603032458409,
              18.75694536924423
            ],
            [
              73.07049165718118,
              18.779770794788625
            ],
            [
              73.08251846792963,
              18.803827285457754
            ],
            [
              73.09199493206744,
              18.82888316409586
            ],
            [
              73.09882978606456,
              18.854697128894724
            ],
            [
              73.10295720654071,
              18.88102057726198
            ],
            [
              73.10433744418042,
              18.9076
            ]
          ]
        ]
      }
    },
    {
      "type": "Feature",
      "properties": {
        "concentration": "HIGH",
        "time_hours": 60,
        "color": "#FF0000",
        "opacity": 0.7
      },
      "geometry": {
        "type": "Polygon",
        "coordinates": [
          [
            [
              73.39097488836084,
              18.9076
            ],
            [
              73.38821441308141,
              18.96075884547603
            ],
            [
              73.37995957212911,
              19.013405742210548
            ],
            [
              73.36628986413487,
              19.065033671808276
            ],
            [
              73.34733693585927,
              19.11514542908449
            ],
            [
              73.32328331436236,
              19.163258410422745
            ],
            [
              73.29436064916817,
              19.20890926151153
            ],
            [
              73.26084748135328,
              19.25165833969956
            ],
            [
              73.22306656104391,
              19.291093947994867
            ],
            [
              73.18138173915578,
              19.326836299931863
            ],
            [
              73.13619446331091,
              19.35854117712264
            ],
            [
              73.0879399116776,
              19.385903244268206
            ],
            [
              73.03708280196665,
              19.408658989704318
            ],
            [
              72.98411291594591,
              19.42658926316287
            ],
            [
              72.92954038257407,
              19.439521386308776
            ],
            [
              72.87389076517988,
              19.447330815726723
            ],
            [
              72.8177,
              19.44994234234234
            ],
            [
              72.76150923482012,
              19.447330815726723
            ],
            [
              72.70585961742593,
              19.439521386308776
            ],
            [
              72.65128708405409,
              19.42658926316287
            ],
            [
              72.59831719803336,
              19.408658989704318
            ],
            [
              72.54746008832241,
              19.385903244268206
            ],
            [
              72.49920553668909,
              19.35854117712264
            ],
            [
              72.45401826084422,
              19.326836299931863
            ],
            [
              72.4123334389561,
              19.291093947994867
            ],
            [
              72.37455251864672,
              19.25165833969956
            ],
            [
              72.34103935083184,
              19.20890926151153
            ],
            [
              72.31211668563765,
              19.163258410422745
            ],
            [
              72.28806306414073,
              19.11514542908449
            ],
            [
              72.26911013586513,
              19.065033671808276
            ],
            [
              72.2554404278709,
              19.013405742210548
            ],
            [
              72.24718558691859,
              18.96075884547603
            ],
            [
              72.24442511163916,
              18.9076
            ],
            [
              72.24718558691859,
              18.85444115452397
            ],
            [
              72.2554404278709,
              18.80179425778945
            ],
            [
              72.26911013586513,
              18.75016632819172
            ],
            [
              72.28806306414073,
              18.70005457091551
            ],
            [
              72.31211668563765,
              18.651941589577252
            ],
            [
              72.34103935083184,
              18.606290738488468
            ],
            [
              72.37455251864672,
              18.563541660300437
            ],
            [
              72.4123334389561,
              18.52410605200513
            ],
            [
              72.45401826084422,
              18.488363700068135
            ],
            [
              72.49920553668909,
              18.45665882287736
            ],
            [
              72.54746008832241,
              18.42929675573179
            ],
            [
              72.59831719803336,
              18.40654101029568
            ],
            [
              72.65128708405409,
              18.388610736837126
            ],
            [
              72.70585961742593,
              18.37567861369122
            ],
            [
              72.76150923482012,
              18.367869184273275
            ],
            [
              72.8177,
              18.365257657657658
            ],
            [
              72.87389076517988,
              18.367869184273275
            ],
            [
              72.92954038257407,
              18.37567861369122
            ],
            [
              72.98411291594591,
              18.388610736837126
            ],
            [
              73.03708280196665,
              18.40654101029568
            ],
            [
              73.0879399116776,
              18.42929675573179
            ],
            [
              73.13619446331091,
              18.45665882287736
            ],
            [
              73.18138173915578,
              18.488363700068135
            ],
            [
              73.22306656104391,
              18.52410605200513
            ],
            [
              73.26084748135328,
              18.563541660300437
            ],
            [
              73.29436064916817,
              18.606290738488468
            ],
            [
              73.32328331436236,
              18.651941589577252
            ],
            [
              73.34733693585927,
              18.70005457091551
            ],
            [
              73.36628986413487,
              18.75016632819172
            ],
            [
              73.37995957212911,
              18.80179425778945
            ],
            [
              73.38821441308141,
              18.85444115452397
            ],
            [
              73.39097488836084,
              18.9076
            ]
          ]
        ]
      }
    },
    {
      "type": "Feature",
      "properties": {
        "concentration": "MEDIUM",
        "time_hours": 60,
        "color": "#FFA500",
        "opacity": 0.6
      },
      "geometry": {
        "type": "Polygon",
        "coordinates": [
          [
            [
              73.67761233254126,
              18.9076
            ],
            [
              73.67347161962212,
              18.987338268214046
            ],
            [
              73.66108935819368,
              19.066308613315822
            ],
            [
              73.6405847962023,
              19.14375050771241
            ],
            [
              73.6121554037889,
              19.218918143626734
            ],
            [
              73.57607497154353,
              19.291087615634122
            ],
            [
              73.53269097375225,
              19.359563892267296
            ],
            [
              73.48242122202993,
              19.423687509549342
            ],
            [
              73.42574984156586,
              19.4828409219923
            ],
            [
              73.36322260873366,
              19.536454449897793
            ],
            [
              73.29544169496637,
              19.58401176568396
            ],
            [
              73.22305986751638,
              19.62505486640231
            ],
            [
              73.14677420294996,
              19.659188484556477
            ],
            [
              73.06731937391888,
              19.68608389474431
            ],
            [
              72.98546057386112,
              19.705482079463167
            ],
            [
              72.90198614776982,
              19.717196223590083
            ],
            [
              72.8177,
              19.72111351351351
            ],
            [
              72.73341385223019,
              19.717196223590083
            ],
            [
              72.64993942613889,
              19.705482079463167
            ],
            [
              72.56808062608113,
              19.68608389474431
            ],
            [
              72.48862579705005,
              19.659188484556477
            ],
            [
              72.41234013248362,
              19.62505486640231
            ],
            [
              72.33995830503363,
              19.58401176568396
            ],
            [
              72.27217739126634,
              19.536454449897793
            ],
            [
              72.20965015843414,
              19.4828409219923
            ],
            [
              72.15297877797008,
              19.423687509549342
            ],
            [
              72.10270902624775,
              19.359563892267296
            ],
            [
              72.05932502845647,
              19.291087615634122
            ],
            [
              72.0232445962111,
              19.218918143626734
            ],
            [
              71.9948152037977,
              19.14375050771241
            ],
            [
              71.97431064180633,
              19.066308613315822
            ],
            [
              71.96192838037788,
              18.987338268214046
            ],
            [
              71.95778766745875,
              18.9076
            ],
            [
              71.96192838037788,
              18.82786173178595
            ],
            [
              71.97431064180633,
              18.748891386684175
            ],
            [
              71.9948152037977,
              18.671449492287586
            ],
            [
              72.0232445962111,
              18.596281856373263
            ],
            [
              72.05932502845647,
              18.524112384365875
            ],
            [
              72.10270902624775,
              18.4556361077327
            ],
            [
              72.15297877797008,
              18.391512490450655
            ],
            [
              72.20965015843414,
              18.3323590780077
            ],
            [
              72.27217739126634,
              18.278745550102204
            ],
            [
              72.33995830503363,
              18.231188234316036
            ],
            [
              72.41234013248362,
              18.19014513359769
            ],
            [
              72.48862579705005,
              18.15601151544352
            ],
            [
              72.56808062608113,
              18.129116105255687
            ],
            [
              72.64993942613889,
              18.10971792053683
            ],
            [
              72.73341385223019,
              18.098003776409914
            ],
            [
              72.8177,
              18.094086486486486
            ],
            [
              72.90198614776982,
              18.098003776409914
            ],
            [
              72.98546057386112,
              18.10971792053683
            ],
            [
              73.06731937391888,
              18.129116105255687
            ],
            [
              73.14677420294996,
              18.15601151544352
            ],
            [
              73.22305986751638,
              18.19014513359769
            ],
            [
              73.29544169496637,
              18.231188234316036
            ],
            [
              73.36322260873366,
              18.278745550102204
            ],
            [
              73.42574984156586,
              18.3323590780077
            ],
            [
              73.48242122202993,
              18.391512490450655
            ],
            [
              73.53269097375225,
              18.4556361077327
            ],
            [
              73.57607497154353,
              18.524112384365875
            ],
            [
              73.6121554037889,
              18.596281856373263
            ],
            [
              73.6405847962023,
              18.671449492287586
            ],
            [
              73.66108935819368,
              18.748891386684175
            ],
            [
              73.67347161962212,
              18.82786173178595
            ],
            [
              73.67761233254126,
              18.9076
            ]
          ]
        ]
      }
    },
    {
      "type": "Feature",
      "properties": {
        "concentration": "LOW",
        "time_hours": 60,
        "color": "#FFFF00",
        "opacity": 0.5
      },
      "geometry": {
        "type": "Polygon",
        "coordinates": [
          [
            [
              74.2508872209021,
              18.9076
            ],
            [
              74.24398603270353,
              19.04049711369008
            ],
            [
              74.22334893032279,
              19.17211435552637
            ],
            [
              74.18917466033716,
              19.30118417952069
            ],
            [
              74.14179233964818,
              19.426463572711224
            ],
            [
              74.08165828590589,
              19.54674602605687
            ],
            [
              74.00935162292043,
              19.66087315377883
            ],
            [
              73.9255687033832,
              19.767745849248904
            ],
            [
              73.83111640260978,
              19.866334869987163
            ],
            [
              73.72690434788944,
              19.955690749829657
            ],
            [
              73.6139361582773,
              20.0349529428066
            ],
            [
              73.49329977919398,
              20.103358110670516
            ],
            [
              73.3661570049166,
              20.160247474260796
            ],
            [
              73.23373228986479,
              20.205073157907183
            ],
            [
              73.09730095643519,
              20.237403465771948
            ],
            [
              72.9581769129497,
              20.256927039316807
            ],
            [
              72.8177,
              20.263455855855856
            ],
            [
              72.67722308705031,
              20.256927039316807
            ],
            [
              72.53809904356481,
              20.237403465771948
            ],
            [
              72.40166771013521,
              20.205073157907183
            ],
            [
              72.2692429950834,
              20.160247474260796
            ],
            [
              72.14210022080603,
              20.103358110670516
            ],
            [
              72.0214638417227,
              20.0349529428066
            ],
            [
              71.90849565211056,
              19.955690749829657
            ],
            [
              71.80428359739022,
              19.866334869987163
            ],
            [
              71.7098312966168,
              19.767745849248904
            ],
            [
              71.62604837707957,
              19.66087315377883
            ],
            [
              71.55374171409412,
              19.54674602605687
            ],
            [
              71.49360766035183,
              19.426463572711224
            ],
            [
              71.44622533966285,
              19.30118417952069
            ],
            [
              71.41205106967722,
              19.17211435552637
            ],
            [
              71.39141396729647,
              19.04049711369008
            ],
            [
              71.3845127790979,
              18.9076
            ],
            [
              71.39141396729647,
              18.774702886309917
            ],
            [
              71.41205106967722,
              18.643085644473626
            ],
            [
              71.44622533966285,
              18.514015820479308
            ],
            [
              71.49360766035183,
              18.388736427288773
            ],
            [
              71.55374171409412,
              18.268453973943128
            ],
            [
              71.62604837707957,
              18.15432684622117
            ],
            [
              71.7098312966168,
              18.047454150751093
            ],
            [
              71.80428359739022,
              17.948865130012834
            ],
            [
              71.90849565211056,
              17.85950925017034
            ],
            [
              72.0214638417227,
              17.780247057193396
            ],
            [
              72.14210022080603,
              17.71184188932948
            ],
            [
              72.2692429950834,
              17.6549525257392
            ],
            [
              72.40166771013521,
              17.610126842092814
            ],
            [
              72.53809904356481,
              17.57779653422805
            ],
            [
              72.67722308705031,
              17.55827296068319
            ],
            [
              72.8177,
              17.55174414414414
            ],
            [
              72.9581769129497,
              17.55827296068319
            ],
            [
              73.09730095643519,
              17.57779653422805
            ],
            [
              73.23373228986479,
              17.610126842092814
            ],
            [
              73.3661570049166,
              17.6549525257392
            ],
            [
              73.49329977919398,
              17.71184188932948
            ],
            [
              73.6139361582773,
              17.780247057193396
            ],
            [
              73.72690434788944,
              17.85950925017034
            ],
            [
              73.83111640260978,
              17.948865130012834
            ],
            [
              73.9255687033832,
              18.04745415075109
            ],
            [
              74.00935162292043,
              18.154326846221167
            ],
            [
              74.08165828590589,
              18.268453973943128
            ],
            [
              74.14179233964818,
              18.388736427288773
            ],
            [
              74.18917466033716,
              18.514015820479308
            ],
            [
              74.22334893032279,
              18.643085644473626
            ],
            [
              74.24398603270353,
              18.774702886309917
            ],
            [
              74.2508872209021,
              18.9076
            ]
          ]
        ]
      }
    },
    {
      "type": "Feature",
      "properties": {
        "type": "release_point",
        "time_hours": 60
      },
      "geometry": {
        "type": "Point",
        "coordinates": [
          72.8177,
          18.9076
        ]
      }
    },
    {
      "type": "Feature",
      "properties": {
        "type": "vessel",
        "name": "MV Oceanic Star",
        "time_hours": 60
      },
      "geometry": {
        "type": "Point",
        "coordinates": [
          73.1177,
          19.2076
        ]
      }
    }
  ]
}