{
  "type": "FeatureCollection",
  "features": [
    {
      "type": "Feature",
      "properties": {
        "concentration": "VERY_HIGH",
        "time_hours": 72,
        "color": "#8B0000",
        "opacity": 0.8
      },
      "geometry": {
        "type": "Polygon",
        "coordinates": [
          [
            [
              73.16147447624296,
              18.9076
            ],
            [
              73.15981910817673,
              18.93947764653961
            ],
            [
              73.15486894607743,
              18.971048293916954
            ],
            [
              73.14667166271211,
              19.002007899539514
            ],
            [
              73.13530620240066,
              19.0320583054809
            ],
            [
              73.12088202073889,
              19.06091010990467
            ],
            [
              73.10353803048125,
              19.08828545416223
            ],
            [
              73.08344126373511,
              19.11392069872349
            ],
            [
              73.06078526335025,
              19.137568962169677
            ],
            [
              73.0357882189954,
              19.159002498796347
            ],
            [
              73.0086908658725,
              19.178014891929024
            ],
            [
              72.979754166305,
              19.194423041828607
            ],
            [
              72.94925679652818,
              19.208068929041957
            ],
            [
              72.91749246288451,
              19.21882113621561
            ],
            [
              72.88476707327116,
              19.226576113716725
            ],
            [
              72.85139579107963,
              19.23125917687267
            ],
            [
              72.8177,
              19.232825225225223
            ],
            [
              72.78400420892038,
              19.23125917687267
            ],
            [
              72.75063292672884,
              19.226576113716725
            ],
            [
              72.7179075371155,
              19.21882113621561
            ],
            [
              72.68614320347183,
              19.208068929041957
            ],
            [
              72.655645833695,
              19.194423041828607
            ],
            [
              72.62670913412751,
              19.178014891929024
            ],
            [
              72.5996117810046,
              19.159002498796347
            ],
            [
              72.57461473664975,
              19.137568962169677
            ],
            [
              72.5519587362649,
              19.11392069872349
            ],
            [
              72.53186196951876,
              19.08828545416223
            ],
            [
              72.51451797926111,
              19.06091010990467
            ],
            [
              72.50009379759935,
              19.0320583054809
            ],
            [
              72.4887283372879,
              19.002007899539514
            ],
            [
              72.48053105392258,
              18.971048293916954
            ],
            [
              72.47558089182327,
              18.93947764653961
            ],
            [
              72.47392552375705,
              18.9076
            ],
            [
              72.47558089182327,
              18.875722353460386
            ],
            [
              72.48053105392258,
              18.844151706083043
            ],
            [
              72.4887283372879,
              18.813192100460483
            ],
            [
              72.50009379759935,
              18.7831416945191
            ],
            [
              72.51451797926111,
              18.75428989009533
            ],
            [
              72.53186196951876,
              18.72691454583777
            ],
            [
              72.5519587362649,
              18.701279301276507
            ],
            [
              72.57461473664975,
              18.67763103783032
            ],
            [
              72.5996117810046,
              18.65619750120365
            ],
            [
              72.62670913412751,
              18.637185108070973
            ],
            [
              72.655645833695,
              18.62077695817139
            ],
            [
              72.68614320347183,
              18.60713107095804
            ],
            [
              72.7179075371155,
              18.596378863784388
            ],
            [
              72.75063292672884,
              18.588623886283273
            ],
            [
              72.78400420892038,
              18.583940823127328
            ],
            [
              72.8177,
              18.582374774774774
            ],
            [
              72.85139579107963,
              18.583940823127328
            ],
            [
              72.88476707327116,
              18.588623886283273
            ],
            [
              72.91749246288451,
              18.596378863784388
            ],
            [
              72.94925679652818,
              18.60713107095804
            ],
            [
              72.979754166305,
              18.62077695817139
            ],
            [
              73.0086908658725,
              18.637185108070973
            ],
            [
              73.0357882189954,
              18.65619750120365
            ],
            [
              73.06078526335025,
              18.67763103783032
            ],
            [
              73.08344126373511,
              18.701279301276507
            ],
            [
              73.10353803048125,
              18.72691454583777
            ],
            [
              73.12088202073889,
              18.75428989009533
            ],
            [
              73.13530620240066,
              18.7831416945191
            ],
            [
              73.14667166271211,
              18.813192100460483
            ],
            [
              73.15486894607743,
              18.844151706083043
            ],
            [
              73.15981910817673,
              18.875722353460386
            ],
            [
              73.16147447624296,
              18.9076
            ]
          ]
        ]
      }
    },
    {
      "type": "Feature",
      "properties": {
        "concentration": "HIGH",
        "time_hours": 72,
        "color": "#FF0000",
        "opacity": 0.7
      },
      "geometry": {
        "type": "Polygon",
        "coordinates": [
          [
            [
              73.50524895248593,
              18.9076
            ],
            [
              73.50193821635347,
              18.971355293079228
            ],
            [
              73.49203789215485,
              19.034496587833914
            ],
            [
              73.47564332542422,
              19.096415799079026
            ],
            [
              73.45291240480132,
              19.156516610961795
            ],
            [
              73.42406404147778,
              19.21422021980934
            ],
            [
              73.38937606096249,
              19.268970908324462
            ],
            [
              73.34918252747022,
              19.32024139744698
            ],
            [
              73.3038705267005,
              19.367537924339356
            ],
            [
              73.25387643799083,
              19.410404997592696
            ],
            [
              73.19968173174499,
              19.44842978385805
            ],
            [
              73.14180833261,
              19.48124608365722
            ],
            [
              73.08081359305633,
              19.508537858083915
            ],
            [
              73.01728492576902,
              19.53004227243122
            ],
            [
              72.95183414654234,
              19.54555222743345
            ],
            [
              72.88509158215926,
              19.554918353745336
            ],
            [
              72.8177,
              19.558050450450448
            ],
            [
              72.75030841784074,
              19.554918353745336
            ],
            [
              72.68356585345767,
              19.54555222743345
            ],
            [
              72.61811507423099,
              19.53004227243122
            ],
            [
              72.55458640694367,
              19.508537858083915
            ],
            [
              72.49359166739,
              19.48124608365722
            ],
            [
              72.43571826825502,
              19.44842978385805
            ],
            [
              72.38152356200918,
              19.410404997592696
            ],
            [
              72.3315294732995,
              19.367537924339356
            ],
            [
              72.28621747252978,
              19.32024139744698
            ],
            [
              72.24602393903751,
              19.268970908324462
            ],
            [
              72.21133595852223,
              19.21422021980934
            ],
            [
              72.18248759519868,
              19.156516610961795
            ],
            [
              72.15975667457579,
              19.096415799079026
            ],
            [
              72.14336210784515,
              19.034496587833914
            ],
            [
              72.13346178364654,
              18.971355293079228
            ],
            [
              72.13015104751408,
              18.9076
            ],
            [
              72.13346178364654,
              18.84384470692077
            ],
            [
              72.14336210784515,
              18.780703412166083
            ],
            [
              72.15975667457579,
              18.71878420092097
            ],
            [
              72.18248759519868,
              18.658683389038202
            ],
            [
              72.21133595852223,
              18.600979780190656
            ],
            [
              72.24602393903751,
              18.546229091675535
            ],
            [
              72.28621747252978,
              18.494958602553016
            ],
            [
              72.3315294732995,
              18.44766207566064
            ],
            [
              72.38152356200918,
              18.4047950024073
            ],
            [
              72.43571826825502,
              18.366770216141948
            ],
            [
              72.49359166739,
              18.33395391634278
            ],
            [
              72.55458640694367,
              18.30666214191608
            ],
            [
              72.61811507423099,
              18.285157727568777
            ],
            [
              72.68356585345767,
              18.269647772566547
            ],
            [
              72.75030841784074,
              18.26028164625466
            ],
            [
              72.8177,
              18.25714954954955
            ],
            [
              72.88509158215926,
              18.26028164625466
            ],
            [
              72.95183414654234,
              18.269647772566547
            ],
            [
              73.01728492576902,
              18.285157727568777
            ],
            [
              73.08081359305633,
              18.30666214191608
            ],
            [
              73.14180833261,
              18.33395391634278
            ],
            [
              73.19968173174499,
              18.366770216141948
            ],
            [
              73.25387643799083,
              18.4047950024073
            ],
            [
              73.3038705267005,
              18.44766207566064
            ],
            [
              73.34918252747022,
              18.494958602553016
            ],
            [
              73.38937606096249,
              18.546229091675535
            ],
            [
              73.42406404147778,
              18.600979780190656
            ],
            [
              73.45291240480132,
              18.658683389038202
            ],
            [
              73.47564332542422,
              18.718784200920968
            ],
            [
              73.49203789215485,
              18.780703412166083
            ],
            [
              73.50193821635347,
              18.84384470692077
            ],
            [
              73.50524895248593,
              18.9076
            ]
          ]
        ]
      }
    },
    {
      "type": "Feature",
      "properties": {
        "concentration": "MEDIUM",
        "time_hours": 72,
        "color": "#FFA500",
        "opacity": 0.6
      },
      "geometry": {
        "type": "Polygon",
        "coordinates": [
          [
            [
              73.84902342872888,
              18.9076
            ],
            [
              73.84405732453018,
              19.00323293961884
            ],
            [
              73.82920683823228,
              19.09794488175087
            ],
            [
              73.80461498813631,
              19.19082369861854
            ],
            [
              73.77051860720198,
              19.280974916442695
            ],
            [
              73.72724606221666,
              19.36753032971401
            ],
            [
              73.67521409144373,
              19.449656362486692
            ],
            [
              73.61492379120533,
              19.526562096170473
            ],
            [
              73.54695579005076,
              19.597506886509034
            ],
            [
              73.47196465698623,
              19.66180749638905
            ],
            [
              73.39067259761748,
              19.718844675787075
            ],
            [
              73.303862498915,
              19.768069125485827
            ],
            [
              73.2123703895845,
              19.809006787125874
            ],
            [
              73.11707738865353,
              19.841263408646828
            ],
            [
              73.0189012198135,
              19.864528341150177
            ],
            [
              72.91878737323889,
              19.878577530618006
            ],
            [
              72.8177,
              19.883275675675673
            ],
            [
              72.71661262676112,
              19.878577530618006
            ],
            [
              72.6164987801865,
              19.864528341150177
            ],
            [
              72.51832261134648,
              19.841263408646828
            ],
            [
              72.4230296104155,
              19.809006787125874
            ],
            [
              72.33153750108501,
              19.768069125485827
            ],
            [
              72.24472740238252,
              19.718844675787075
            ],
            [
              72.16343534301377,
              19.66180749638905
            ],
            [
              72.08844420994924,
              19.597506886509034
            ],
            [
              72.02047620879468,
              19.526562096170473
            ],
            [
              71.96018590855627,
              19.449656362486692
            ],
            [
              71.90815393778334,
              19.36753032971401
            ],
            [
              71.86488139279803,
              19.280974916442695
            ],
            [
              71.8307850118637,
              19.19082369861854
            ],
            [
              71.80619316176772,
              19.09794488175087
            ],
            [
              71.79134267546982,
              19.00323293961884
            ],
            [
              71.78637657127112,
              18.9076
            ],
            [
              71.79134267546982,
              18.811967060381157
            ],
            [
              71.80619316176772,
              18.717255118249128
            ],
            [
              71.8307850118637,
              18.624376301381456
            ],
            [
              71.86488139279803,
              18.534225083557303
            ],
            [
              71.90815393778334,
              18.447669670285986
            ],
            [
              71.96018590855627,
              18.365543637513305
            ],
            [
              72.02047620879468,
              18.288637903829525
            ],
            [
              72.08844420994924,
              18.217693113490963
            ],
            [
              72.16343534301377,
              18.15339250361095
            ],
            [
              72.24472740238252,
              18.096355324212922
            ],
            [
              72.33153750108501,
              18.04713087451417
            ],
            [
              72.4230296104155,
              18.006193212874123
            ],
            [
              72.51832261134648,
              17.97393659135317
            ],
            [
              72.6164987801865,
              17.95067165884982
            ],
            [
              72.71661262676112,
              17.93662246938199
            ],
            [
              72.8177,
              17.931924324324324
            ],
            [
              72.91878737323889,
              17.93662246938199
            ],
            [
              73.0189012198135,
              17.95067165884982
            ],
            [
              73.11707738865353,
              17.97393659135317
            ],
            [
              73.2123703895845,
              18.006193212874123
            ],
            [
              73.303862498915,
              18.04713087451417
            ],
            [
              73.39067259761748,
              18.096355324212922
            ],
            [
              73.47196465698623,
              18.15339250361095
            ],
            [
              73.54695579005076,
              18.217693113490963
            ],
            [
              73.61492379120533,
              18.28863790382952
            ],
            [
              73.67521409144373,
              18.365543637513305
            ],
            [
              73.72724606221666,
              18.447669670285986
            ],
            [
              73.77051860720198,
              18.534225083557303
            ],
            [
              73.80461498813631,
              18.624376301381456
            ],
            [
              73.82920683823228,
              18.717255118249128
            ],
            [
              73.84405732453018,
              18.811967060381157
            ],
            [
              73.84902342872888,
              18.9076
            ]
          ]
        ]
      }
    },
    {
      "type": "Feature",
      "properties": {
        "concentration": "LOW",
        "time_hours": 72,
        "color": "#FFFF00",
        "opacity": 0.5
      },
      "geometry": {
        "type": "Polygon",
        "coordinates": [
          [
            [
              74.53657238121481,
              18.9076
            ],
            [
              74.52829554088365,
              19.06698823269807
            ],
            [
              74.50354473038713,
              19.224841469584785
            ],
            [
              74.46255831356052,
              19.37963949769757
            ],
            [
              74.4057310120033,
              19.52989152740449
            ],
            [
              74.33361010369443,
              19.674150549523354
            ],
            [
              74.24689015240622,
              19.811027270811152
            ],
            [
              74.14640631867555,
              19.93920349361746
            ],
            [
              74.03312631675126,
              20.057444810848395
            ],
            [
              73.90814109497705,
              20.164612493981746
            ],
            [
              73.77265432936247,
              20.25967445964513
            ],
            [
              73.62797083152499,
              20.341715209143043
            ],
            [
              73.47548398264084,
              20.409944645209794
            ],
            [
              73.31666231442254,
              20.46370568107805
            ],
            [
              73.15303536635582,
              20.50248056858363
            ],
            [
              72.98617895539815,
              20.525895884363347
            ],
            [
              72.8177,
              20.533726126126126
            ],
            [
              72.64922104460186,
              20.525895884363347
            ],
            [
              72.48236463364418,
              20.50248056858363
            ],
            [
              72.31873768557746,
              20.46370568107805
            ],
            [
              72.15991601735917,
              20.409944645209794
            ],
            [
              72.00742916847501,
              20.341715209143043
            ],
            [
              71.86274567063754,
              20.25967445964513
            ],
            [
              71.72725890502295,
              20.164612493981746
            ],
            [
              71.60227368324874,
              20.057444810848395
            ],
            [
              71.48899368132446,
              19.93920349361746
            ],
            [
              71.38850984759378,
              19.811027270811152
            ],
            [
              71.30178989630558,
              19.674150549523354
            ],
            [
              71.2296689879967,
              19.52989152740449
            ],
            [
              71.17284168643948,
              19.37963949769757
            ],
            [
              71.13185526961287,
              19.224841469584785
            ],
            [
              71.10710445911636,
              19.06698823269807
            ],
            [
              71.0988276187852,
              18.9076
            ],
            [
              71.10710445911636,
              18.748211767301928
            ],
            [
              71.13185526961287,
              18.590358530415212
            ],
            [
              71.17284168643948,
              18.435560502302426
            ],
            [
              71.2296689879967,
              18.285308472595506
            ],
            [
              71.30178989630558,
              18.141049450476643
            ],
            [
              71.38850984759378,
              18.004172729188845
            ],
            [
              71.48899368132446,
              17.87599650638254
            ],
            [
              71.60227368324874,
              17.757755189151602
            ],
            [
              71.72725890502295,
              17.65058750601825
            ],
            [
              71.86274567063754,
              17.555525540354868
            ],
            [
              72.00742916847501,
              17.473484790856954
            ],
            [
              72.15991601735917,
              17.405255354790203
            ],
            [
              72.31873768557746,
              17.351494318921947
            ],
            [
              72.48236463364418,
              17.31271943141637
            ],
            [
              72.64922104460186,
              17.28930411563665
            ],
            [
              72.8177,
              17.28147387387387
            ],
            [
              72.98617895539815,
              17.28930411563665
            ],
            [
              73.15303536635582,
              17.31271943141637
            ],
            [
              73.31666231442254,
              17.351494318921947
            ],
            [
              73.47548398264084,
              17.405255354790203
            ],
            [
              73.62797083152499,
              17.473484790856954
            ],
            [
              73.77265432936247,
              17.555525540354868
            ],
            [
              73.90814109497705,
              17.65058750601825
            ],
            [
              74.03312631675126,
              17.757755189151602
            ],
            [
              74.14640631867555,
              17.87599650638254
            ],
            [
              74.24689015240622,
              18.004172729188845
            ],
            [
              74.33361010369443,
              18.141049450476643
            ],
            [
              74.4057310120033,
              18.285308472595506
            ],
            [
              74.46255831356052,
              18.435560502302426
            ],
            [
              74.50354473038713,
              18.590358530415212
            ],
            [
              74.52829554088365,
              18.748211767301928
            ],
            [
              74.53657238121481,
              18.9076
            ]
          ]
        ]
      }
    },
    {
      "type": "Feature",
      "properties": {
        "type": "release_point",
        "time_hours": 72
      },
      "geometry": {
        "type": "Point",
        "coordinates": [
          72.8177,
          18.9076
        ]
      }
    },
    {
      "type": "Feature",
      "properties": {
        "type": "vessel",
        "name": "MV Oceanic Star",
        "time_hours": 72
      },
      "geometry": {
        "type": "Point",
        "coordinates": [
          73.1777,
          19.267599999999998
        ]
      }
    }
  ]
}